{"type": "FeatureCollection", "site_id": "bhandara", "site_name": "Bhandara", "provenance": {"status": "TRAINED_MODEL_SCORES", "warning": "Scores derived from models trained with per-site spatial cross-validation. Deposit ground truth labels are synthetic by construction \u2014 real GSI/MOIL borehole data is needed for true geophysical exploration validation.", "generated_utc": "2026-09-22T08:29:42.929206+00:00"}, "features": [{"type": "Feature", "geometry": {"type": "MultiPolygon", "coordinates": [[[[79.57983012698298, 21.11785427339335], [79.57980432905565, 21.12056409307005], [79.57977852703222, 21.12327391185074], [79.57975272091237, 21.125983729735342], [79.57972691069577, 21.128693546723763], [79.57970109638207, 21.131403362815888], [79.57967527797094, 21.134113178011635], [79.57964945546203, 21.13682299231091], [79.57962362885503, 21.139532805713614], [79.57959779814958, 21.14224261821965], [79.57957196334536, 21.144952429828926], [79.57954612444202, 21.14766224054135], [79.57952028143922, 21.150372050356825], [79.58120529914989, 21.15038617909024], [79.58000171527351, 21.150376090563245], [79.57997587692394, 21.15308590004779], [79.57995003447562, 21.155795708635218], [79.57992418792823, 21.158505516325434], [79.57989833728142, 21.16121532311833], [79.57987248253487, 21.16392512901383], [79.57984662368821, 21.166634934011824], [79.57982076074114, 21.169344738112226], [79.57979489369329, 21.17205454131494], [79.57976902254435, 21.174764343619863], [79.57974314729397, 21.1774741450269], [79.5797172679418, 21.180183945535973], [79.57969138448753, 21.18289374514697], [79.5796654969308, 21.185603543859802], [79.57963960527128, 21.188313341674373], [79.57961370950864, 21.191023138590587], [79.57958780964252, 21.193732934608352], [79.57956190567258, 21.19644272972758], [79.57953599759851, 21.199152523948154], [79.57951008541995, 21.201862317270002], [79.57948416913659, 21.204572109693014], [79.57945824874805, 21.207281901217108], [79.57943232425401, 21.209991691842177], [79.57940639565415, 21.212701481568136], [79.57938046294811, 21.215411270394878], [79.57935452613553, 21.218121058322318], [79.57932858521613, 21.22083084535036], [79.57930264018952, 21.223540631478905], [79.57927669105538, 21.226250416707867], [79.57925073781338, 21.22896020103715], [79.57922478046316, 21.231669984466638], [79.57919881900439, 21.234379766996263], [79.57917285343675, 21.237089548625917], [79.57914688375986, 21.239799329355503], [79.5815555025904, 21.239819599787563], [79.58155550255749, 21.23981960322688], [79.58179636445999, 21.239821626830654], [79.58203722665905, 21.23982365387652], [79.58203722669195, 21.2398236504372], [79.58444584887494, 21.239843886501472], [79.58733619928664, 21.239868120280086], [79.59022655378425, 21.239892304562424], [79.59311691235942, 21.239916439348203], [79.5960072750038, 21.239940524637124], [79.59889764170902, 21.23996456042891], [79.60178801246674, 21.239988546723257], [79.60467838726862, 21.240012483519887], [79.60470389066526, 21.23730267302676], [79.60181356865114, 21.237278739572524], [79.60183912079172, 21.23456893152266], [79.60472939002643, 21.23459286163462], [79.60475488535248, 21.23188304934357], [79.6047803766437, 21.229173236153695], [79.60480586390047, 21.22646342206509], [79.60483134712311, 21.22375360707786], [79.6077214093575, 21.223777474365363], [79.60774683580834, 21.221067655144818], [79.61063684932985, 21.221091469647618], [79.61061147561733, 21.223801292196026], [79.61058609788773, 21.22651111384613], [79.61056071614067, 21.229220934597844], [79.61345089191998, 21.229244709613646], [79.61347622091168, 21.226534885540744], [79.61350154589428, 21.223825060569567], [79.61639162017998, 21.223848779485692], [79.61928169846611, 21.223872448944125], [79.62217178074428, 21.223896068944565], [79.6250618670062, 21.22391963948675], [79.62503675301492, 21.226629477673118], [79.62792689600086, 21.226653002043278], [79.62790183079089, 21.229362842618475], [79.63079203050151, 21.229386320802618], [79.63081704295413, 21.226676476947688], [79.63370719386641, 21.22669990238607], [79.63368223417145, 21.229409749513824], [79.63365727052549, 21.232119595744013], [79.63076701408954, 21.232096163759874], [79.62787676161325, 21.232072682295886], [79.62498651310496, 21.23204915135234], [79.6249613871856, 21.23475898684499], [79.6278516884676, 21.234782521075413], [79.62782661135361, 21.237492358956963], [79.62493625728956, 21.237468821439546], [79.62491112341652, 21.240178655135914], [79.62780153027097, 21.24020219594043], [79.63069194109441, 21.240225687244653], [79.63358235587849, 21.240249129048298], [79.63360733137932, 21.237539285511346], [79.63363230292823, 21.23482944107655], [79.63652261609016, 21.234852826846705], [79.63649769732432, 21.237562674547757], [79.63647277461483, 21.240272521351077], [79.63936319729514, 21.240295864152714], [79.642253623911, 21.240319157452923], [79.64227844103672, 21.23760930413759], [79.64516881878747, 21.237632544690463], [79.64514405445411, 21.240342401251432], [79.6480344889161, 21.240365595547946], [79.6509249272886, 21.240388740342205], [79.65381536956328, 21.24041183563391], [79.65670581573177, 21.240434881422797], [79.65959626578575, 21.240457877708586], [79.65959859916383, 21.240199793509863], [79.66235140771201, 21.24022164954469], [79.6623735288952, 21.237769856048036], [79.66251116728927, 21.237770948601323], [79.6654015720259, 21.23779384268069], [79.66538124358107, 21.24005207531752], [79.6682716964416, 21.240074922560613], [79.66829198089181, 21.23781668726518], [79.66829198115984, 21.237816687267298], [79.66829400943652, 21.23759085263629], [79.6682960377825, 21.23736504013392], [79.6682960375145, 21.237365040131802], [79.66831631929098, 21.235106804093547], [79.67120667922116, 21.235129595997403], [79.67123096072234, 21.232419708744057], [79.6683406535707, 21.232396920023415], [79.66545035027018, 21.232374081819295], [79.66547473346867, 21.229664200042894], [79.66836498399933, 21.229687035057005], [79.66838931057715, 21.2269771491944], [79.66841363330451, 21.224267262435703], [79.66843795218172, 21.221557374781003], [79.67132804830267, 21.22158015076993], [79.67135231059325, 21.218870259036677], [79.67424235781857, 21.218892982393758], [79.6771324088767, 21.218915656301373], [79.68002246375931, 21.218938280759247], [79.68004656402147, 21.21622837862414], [79.67715656186826, 21.216205757328076], [79.67718071103566, 21.213495857459396], [79.68007066046782, 21.213518475593766], [79.68296061371547, 21.21354104429194], [79.6829846536333, 21.210831137211716], [79.68587455797476, 21.21085365332566], [79.68585057077027, 21.213563563553652], [79.685826579767, 21.216273472886694], [79.6829365699905, 21.216250950477104], [79.68291252245805, 21.218960855767104], [79.68580258496459, 21.21898338132468], [79.68577858636274, 21.22169328886753], [79.68866870540738, 21.221715768115732], [79.68869265127053, 21.219005857431693], [79.69158272136757, 21.219028284087884], [79.69160661070897, 21.216318369374655], [79.69163049626796, 21.21360845376659], [79.69165437804483, 21.21089853726379], [79.69454429375673, 21.210920905087438], [79.69452046469414, 21.213630824717274], [79.69449663185777, 21.21634074345248], [79.69738665678067, 21.216363068085855], [79.6973628729015, 21.2190729890467], [79.6973390852563, 21.221782909112843], [79.70022921941644, 21.221805190528478], [79.7002529543217, 21.219095267348784], [79.70314303949961, 21.219117496198965], [79.70311935733459, 21.221827422485294], [79.70600949900239, 21.22184960498303], [79.70598586583662, 21.22455953347462], [79.70596222892924, 21.227269461071664], [79.70593858827993, 21.229979387774048], [79.70304828834037, 21.22995719597647], [79.70307198175529, 21.227247272374143], [79.7001817383316, 21.22722503420372], [79.70015799215139, 21.22993495469908], [79.70013424221224, 21.232644874299478], [79.70302459117488, 21.232667118683946], [79.7059149438884, 21.23268931358168], [79.70589129575433, 21.235399238494484], [79.70300089025848, 21.235377040496466], [79.7029771855909, 21.23808696141395], [79.70586764361693, 21.238109162510348], [79.7058479311206, 21.240367431843538], [79.70873843714911, 21.2403895860191], [79.71162894691268, 21.240411690687807], [79.71451946040297, 21.240433745849412], [79.71740997761161, 21.240455751503635], [79.72030049853026, 21.240477707650218], [79.72031999103264, 21.238219425484786], [79.7203199912902, 21.238219425486744], [79.7203219403286, 21.237993591970326], [79.72032388953373, 21.237767768979502], [79.72032388927617, 21.237767768977545], [79.72034337920921, 21.235509486070626], [79.72036676342712, 21.23279954576013], [79.72039014394426, 21.230089604555335], [79.72041352076091, 21.227379662456336], [79.72043689387739, 21.224669719463233], [79.72046026329402, 21.221959775576117], [79.72048362901107, 21.21924983079508], [79.72000194419212, 21.219246175437828], [79.72002531496926, 21.21653623370934], [79.72004868207569, 21.213826287651088], [79.72007204548207, 21.21111634069919], [79.717663754625, 21.211098064716552], [79.7176871582259, 21.208388122860086], [79.71768715825556, 21.208388119426004], [79.72009540518873, 21.208406392853725], [79.72011876119595, 21.20569644411479], [79.72014211350407, 21.20298649448248], [79.72016546211336, 21.200276543956896], [79.72018880702412, 21.19756659253812], [79.72021214823668, 21.19485664022626], [79.72023548575136, 21.192146687021392], [79.71734590578137, 21.19212477730329], [79.71732251563772, 21.194834724011226], [79.71491449124842, 21.19481642906066], [79.7149379253036, 21.192106481480685], [79.7149613556459, 21.189396533007603], [79.7120718351262, 21.189374535829497], [79.71209531439725, 21.186664589541106], [79.7092058502395, 21.186642546070622], [79.70922937842266, 21.183932601973694], [79.70925290287715, 21.18122265698373], [79.70636354770483, 21.181200570326137], [79.7063871210467, 21.178490627534405], [79.70927642360331, 21.17851271110082], [79.71216572988796, 21.178534745318156], [79.71214226177783, 21.181244694285343], [79.7150316243985, 21.181266682230703], [79.71743942944762, 21.18128496438634], [79.71743942941805, 21.181284967815614], [79.71768020969677, 21.181286792599963], [79.71792099073085, 21.181288620819544], [79.7179209907604, 21.18128861739026], [79.72032879883709, 21.181306865273825], [79.7203521178668, 21.178596907605375], [79.72037543320045, 21.175886949044493], [79.72039874483832, 21.173176989591273], [79.72042205278073, 21.170467029245803], [79.72044535702798, 21.16775706800818], [79.72046865758037, 21.165047105878497], [79.72049195443822, 21.162337142856853], [79.7205152476018, 21.159627178943346], [79.72053853707145, 21.156917214138048], [79.72056182284744, 21.154207248441075], [79.72058510493011, 21.15149728185252], [79.72060838331974, 21.148787314372456], [79.72063165801664, 21.146077346001004], [79.72065492902112, 21.14336737673824], [79.7182477341763, 21.143349164601364], [79.71827104520942, 21.140639200422136], [79.71827104523885, 21.140639197000045], [79.72067819633348, 21.140657406584268], [79.72070145995401, 21.137947435539175], [79.72072471988304, 21.135237463603058], [79.72074797612085, 21.13252749077601], [79.72077122866776, 21.129817517058132], [79.72079447752405, 21.127107542449505], [79.72081772269006, 21.124397566950233], [79.72084096416606, 21.121687590560416], [79.72086420195235, 21.118977613280126], [79.72088743604928, 21.11626763510948], [79.7209106664571, 21.113557656048563], [79.71826328105222, 21.113537653579506], [79.71561589903739, 21.1135176135435], [79.71272784932528, 21.11349570249979], [79.70983980332555, 21.113473742272415], [79.70981637198764, 21.11618370955775], [79.70692827729279, 21.11616169705842], [79.70404018632723, 21.116139635369077], [79.70115209909932, 21.116117524489958], [79.70112850676897, 21.118827481597876], [79.7040166464204, 21.11884959557946], [79.70399310277561, 21.121559554898855], [79.70110491069235, 21.12153743781468], [79.69821672235565, 21.121515271527205], [79.6982403708638, 21.118805318419884], [79.69535223871323, 21.118783106045775], [79.69532853777385, 21.1214930560367], [79.69244035695527, 21.121470791343437], [79.69241659981346, 21.124180737319538], [79.68952837032748, 21.124158420293476], [79.68950455696657, 21.126868362247542], [79.68661627881384, 21.12684599287504], [79.68372800444992, 21.126823574286778], [79.68083973388312, 21.12680110648303], [79.68081575937688, 21.12951103811229], [79.68079178106485, 21.13222096884929], [79.67790340938656, 21.132198445513943], [79.67792744016121, 21.129488517935187], [79.67503912475965, 21.129465948536247], [79.67215081318051, 21.12944332991572], [79.67217494504878, 21.126733407781565], [79.66928668975376, 21.126710743118576], [79.66639843829749, 21.126688029241457], [79.66642267122515, 21.123978112579156], [79.66353447606038, 21.123955352680714], [79.66064628475068, 21.123932543575584], [79.6577580973044, 21.123909685264046], [79.65486991372985, 21.123886777746385], [79.65489435255324, 21.12117687300254], [79.65200622529359, 21.121153919499033], [79.65203071266376, 21.118444017082112], [79.64914264171834, 21.118421017606742], [79.64916717761865, 21.11571111752351], [79.64627916298683, 21.11568807209024], [79.64339115225906, 21.115664977472633], [79.64336651152398, 21.118374871081773], [79.64047845229169, 21.11835172403273], [79.6375903969804, 21.11832852779302], [79.637615142549, 21.115618640685575], [79.63472714358332, 21.115595398516675], [79.63470234559847, 21.118305282362932], [79.63467754367595, 21.121015165315505], [79.63465273781546, 21.123725047374304], [79.63176458551435, 21.12370174621757], [79.63178944380743, 21.120991867427097], [79.6318142981542, 21.118281987742733], [79.62892625465591, 21.118258643932705], [79.6289013478852, 21.12096852034196], [79.6260132559176, 21.120945124060377], [79.62603821511192, 21.11823525093313], [79.62606317034361, 21.115525376911858], [79.62317518717721, 21.115501938011814], [79.62315017953057, 21.118211808744295], [79.62026214792014, 21.11818831736647], [79.62023708387957, 21.120898183909], [79.6173490038258, 21.120874640039773], [79.61737412028899, 21.118164776799958], [79.61448609664542, 21.11814118704502], [79.61451126153501, 21.115431326220328], [79.61162329430101, 21.115407690593646], [79.61164850760035, 21.112697832190843], [79.60876059677527, 21.112674150706404], [79.60587268996206, 21.112650420048194], [79.60298478716905, 21.11262664021651], [79.6030101536539, 21.109916790909164], [79.60589800405089, 21.10994056740399], [79.60878585846773, 21.10996429473223], [79.60881111614863, 21.107254437863627], [79.60592331411982, 21.107230713865224], [79.60303551611055, 21.107206940707137], [79.60306087453935, 21.10449708961054], [79.6030820032065, 21.10223887967777], [79.60308200348673, 21.102238879680083], [79.6030841161453, 21.102013050980286], [79.6030862289406, 21.101787237619458], [79.60308622866037, 21.10178723761715], [79.60310735453197, 21.09952902694367], [79.60021970893631, 21.099505214099203], [79.5973320673759, 21.099481352115173], [79.59444442985904, 21.099457440991873], [79.59155679639406, 21.099433480729584], [79.58866916698926, 21.099409471328595], [79.58578154165298, 21.0993854127892], [79.58289392039352, 21.09936130511169], [79.58000630321918, 21.099337148296343], [79.5799848285481, 21.101595336522525], [79.57998268077733, 21.10182115432464], [79.57998053327275, 21.102046974093152], [79.5799590551902, 21.104305161573222], [79.57993327773823, 21.107014985728483], [79.57990749619188, 21.109724808988226], [79.57988171055077, 21.112434631352343], [79.57985592081458, 21.11514445282075], [79.57983012698298, 21.11785427339335]], [[79.6684622672091, 21.2188474862304], [79.66848657838696, 21.216137596783984], [79.67137656904266, 21.216160366407724], [79.67135231059325, 21.218870259036677], [79.6684622672091, 21.2188474862304]], [[79.68009475309867, 21.210808571668213], [79.67720485637922, 21.210785956695425], [79.67722899789923, 21.20807605503627], [79.67433915770737, 21.208053393802853], [79.67436334809989, 21.20534349441686], [79.67147356443495, 21.20532078693679], [79.6685837846096, 21.205298030042076], [79.66860807654466, 21.202588136118003], [79.67149780368327, 21.202610889830748], [79.67152203909232, 21.199900991829576], [79.67154627066242, 21.19719109293336], [79.67443589629124, 21.19721379088856], [79.67441171739151, 21.199923692959622], [79.67438753466115, 21.20263359413575], [79.67727726946997, 21.202656249032742], [79.6773013995213, 21.19994634468857], [79.68019108547337, 21.19996894701613], [79.68021515903145, 21.197259038616117], [79.68023922877592, 21.19454912932149], [79.68312881320763, 21.19457167593928], [79.68601840144431, 21.194594173168962], [79.68599443702608, 21.197304088764696], [79.68888408172296, 21.197326539746197], [79.68890799347761, 21.194616621010276], [79.69179758929916, 21.194639019462937], [79.69182144460999, 21.191929096699656], [79.6947109915556, 21.191951442637137], [79.6976005422725, 21.191973739192335], [79.69757679227372, 21.194683668201236], [79.69468718890064, 21.194661368526678], [79.69466338247412, 21.19737129352226], [79.69755303851171, 21.19739359631628], [79.69752928098615, 21.200103523537393], [79.69750551969672, 21.202813449864443], [79.69461575830505, 21.20279114083116], [79.69459194056188, 21.20550106314429], [79.69170213025349, 21.205478701574382], [79.68881232372627, 21.20545629058793], [79.68878839681541, 21.20816620574618], [79.68589854138075, 21.20814374220281], [79.68300868974428, 21.208121229236525], [79.6829846536333, 21.210831137211716], [79.68009475309867, 21.210808571668213]], [[79.6744600713607, 21.19450388792267], [79.6773496481575, 21.194526533315866], [79.67732552575038, 21.197236439449576], [79.67443589629124, 21.19721379088856], [79.6744600713607, 21.19450388792267]], [[79.718317656268, 21.135219259123893], [79.718317656268, 21.13521925912389], [79.72072471988304, 21.135237463603058], [79.718317656268, 21.135219259123893]], [[79.71843411912853, 21.121669398842307], [79.71843411912853, 21.121669398842304], [79.72084096416606, 21.121687590560416], [79.71843411912853, 21.121669398842307]], [[79.67787937479748, 21.134908372200254], [79.67499095446291, 21.1348857964709], [79.6721025379514, 21.134863171506176], [79.67212667748149, 21.132153251157284], [79.67501504152266, 21.132175872949855], [79.67790340938656, 21.132198445513943], [79.67787937479748, 21.134908372200254]], [[79.67207839458995, 21.137573090962288], [79.67205424739682, 21.140283009525525], [79.66916572975163, 21.140260328967234], [79.66918992943145, 21.137550413583277], [79.66630146811296, 21.13752768696253], [79.6663257164308, 21.13481777387167], [79.66921412527127, 21.134840497306342], [79.6721025379514, 21.134863171506176], [79.67207839458995, 21.137573090962288]], [[79.66637420152276, 21.129397945011036], [79.66348590146082, 21.12937517872742], [79.66351019068829, 21.126665266150486], [79.66639843829749, 21.126688029241457], [79.66637420152276, 21.129397945011036]], [[79.66346160837762, 21.13208509041144], [79.66057325971063, 21.13206227170769], [79.66059760525458, 21.129352363223326], [79.66348590146082, 21.12937517872742], [79.66346160837762, 21.13208509041144]], [[79.61159807699778, 21.118117548101957], [79.60871006135433, 21.118093859971044], [79.6087353310709, 21.115384005786034], [79.61162329430101, 21.115407690593646], [79.61159807699778, 21.118117548101957]], [[79.58576015396649, 21.101643606659906], [79.58576015396648, 21.101643606659906], [79.58578154165298, 21.0993854127892], [79.58576015396649, 21.101643606659906]], [[79.64252639636763, 21.210510721637533], [79.64255117031522, 21.207800858454927], [79.63966137665274, 21.207777604177732], [79.63677158692194, 21.207754300482033], [79.6367964623296, 21.205044442912218], [79.63968619936885, 21.205067743349844], [79.64257594033947, 21.20509099437587], [79.64260070644067, 21.202381129400447], [79.64262546861922, 21.199671263528753], [79.63973583300731, 21.199648019004734], [79.6397606439303, 21.196938155487686], [79.64265022687538, 21.196961396760884], [79.6455398137425, 21.19698458864293], [79.6455151081535, 21.19969445865472], [79.64549039865047, 21.202404327770438], [79.64546568523309, 21.205114195990014], [79.64835543404139, 21.205137348192], [79.64833076940185, 21.207847218752672], [79.64544096790104, 21.207824063313335], [79.64541624665398, 21.210533929740315], [79.64252639636763, 21.210510721637533]], [[79.64588528119594, 21.159046314444545], [79.64590992811317, 21.1563364310032], [79.64879872988229, 21.156359524952325], [79.6487741355075, 21.159069411628966], [79.64874953723181, 21.161779297411087], [79.6458606303695, 21.16175619699125], [79.64588528119594, 21.159046314444545]], [[79.64302113025295, 21.156313287766224], [79.6429964307936, 21.15902316796537], [79.64010758430877, 21.158999972191705], [79.64013233630993, 21.15629009524167], [79.63724354629244, 21.156266853429827], [79.63435476020881, 21.156243562330967], [79.6314659780674, 21.15622022194538], [79.63149088374146, 21.15351035388897], [79.63437961335039, 21.153533691004853], [79.6344044625501, 21.15082381878383], [79.63729314357641, 21.150847103357204], [79.63731793631841, 21.148137226978793], [79.63734272512751, 21.145427349705773], [79.63736751000404, 21.142717471538248], [79.64025603743912, 21.142740697071748], [79.64023130506241, 21.145450578494717], [79.64311988892155, 21.14547375802398], [79.64600847669661, 21.14549688829328], [79.64598384541294, 21.14820677531225], [79.64595921022135, 21.15091666143696], [79.64884790693057, 21.15093974891582], [79.64882332035653, 21.15364963738124], [79.64593457112154, 21.153626546667308], [79.64590992811317, 21.1563364310032], [79.64302113025295, 21.156313287766224]], [[79.64008282838175, 21.16170984824687], [79.63719393327298, 21.16168659992288], [79.63721874174982, 21.15897672712385], [79.64010758430877, 21.158999972191705], [79.64008282838175, 21.16170984824687]], [[79.6488724896047, 21.14822985955616], [79.65176113769604, 21.148252894532646], [79.65173660753969, 21.150962787120367], [79.64884790693057, 21.15093974891582], [79.6488724896047, 21.14822985955616]], [[79.65462531204038, 21.15098577605031], [79.65460083051887, 21.153695670965167], [79.65171207349175, 21.153672678813955], [79.65173660753969, 21.150962787120367], [79.65462531204038, 21.15098577605031]], [[79.65464978967864, 21.14827588024144], [79.65753844554416, 21.148298816682253], [79.65751402042432, 21.151008715705373], [79.65462531204038, 21.15098577605031], [79.65464978967864, 21.14827588024144]], [[79.66040273268315, 21.151031606085287], [79.66037835621545, 21.153741507421962], [79.65748959142954, 21.153718613834595], [79.65751402042432, 21.151008715705373], [79.66040273268315, 21.151031606085287]], [[79.60802626118247, 21.19125958445021], [79.60800087898973, 21.193969413547123], [79.60511139641437, 21.19394558293565], [79.60513683125335, 21.191235757172215], [79.60802626118247, 21.19125958445021]], [[79.6108903655869, 21.193993194777747], [79.61086503202722, 21.19670302630397], [79.60797549277518, 21.196679241746654], [79.60800087898973, 21.193969413547123], [79.6108903655869, 21.193993194777747]], [[79.60224740535403, 21.191211880520562], [79.60227288880075, 21.18850205719999], [79.60229836820965, 21.185792232982003], [79.60232384358106, 21.18308240786668], [79.60521311159272, 21.18310627449789], [79.6051876888422, 21.18581610295324], [79.6051622620625, 21.188525930511382], [79.60513683125335, 21.191235757172215], [79.60224740535403, 21.191211880520562]], [[79.59943457960654, 21.18305849188282], [79.59946010355301, 21.180348669217082], [79.59657089623586, 21.18032470723458], [79.59654531967752, 21.183034526546592], [79.59651973906536, 21.185744344961126], [79.59363043057026, 21.185720326912087], [79.59360479327572, 21.188430141068196], [79.59071543621525, 21.188406070292686], [79.59074112613769, 21.18569625950435], [79.58785182577594, 21.185672142738206], [79.58787756424674, 21.182962334426627], [79.5879032986387, 21.180252525217213], [79.59079249377037, 21.180276635234357], [79.5908181714813, 21.177566821752894], [79.59370731808026, 21.17759087905803], [79.59659646874071, 21.177614887025193], [79.59662203719242, 21.174905065918523], [79.5995111393108, 21.174929021193932], [79.59948562345433, 21.17763884565409], [79.60237478221275, 21.17766275494443], [79.60526394500768, 21.17768661489593], [79.60523853031444, 21.18039644514542], [79.60234931491532, 21.180372581854122], [79.60232384358106, 21.18308240786668], [79.59943457960654, 21.18305849188282]], [[79.58792902895217, 21.17754271511007], [79.58795475518747, 21.174832904105294], [79.5908438451224, 21.174857007373916], [79.5908181714813, 21.177566821752894], [79.58792902895217, 21.17754271511007]], [[79.59373293912682, 21.174881061311755], [79.59375855611223, 21.172171242668174], [79.59664760159127, 21.172195243914672], [79.59662203719242, 21.174905065918523], [79.59373293912682, 21.174881061311755]], [[79.59953665112282, 21.172219195836707], [79.59956215889066, 21.16950936958251], [79.59958766261468, 21.16679954243143], [79.60247661104097, 21.16682343833615], [79.60536556350242, 21.166847284929645], [79.60539095805821, 21.16413745019647], [79.6082798619836, 21.16416124414615], [79.60825451999068, 21.16687108221163], [79.60822917397925, 21.169580919380678], [79.6053401649198, 21.169557118766274], [79.60531476231002, 21.172266951706263], [79.60528935567275, 21.174976783749518], [79.6024002454737, 21.174952927137692], [79.5995111393108, 21.174929021193932], [79.59953665112282, 21.172219195836707]], [[79.6025020581593, 21.16411360694218], [79.6025275012428, 21.16140377465164], [79.60541634858751, 21.16142761456684], [79.60539095805821, 21.16413745019647], [79.6025020581593, 21.16411360694218]], [[79.60830519995837, 21.161451405184334], [79.6083305339153, 21.15874156532628], [79.61121933675746, 21.15876530332062], [79.61119405534706, 21.161475146503843], [79.61116876992716, 21.164184988790936], [79.6082798619836, 21.16416124414615], [79.60830519995837, 21.161451405184334]], [[79.59669871823189, 21.16677559721578], [79.59667316193766, 21.169485421013714], [79.59378416903682, 21.16946142312738], [79.59380977790092, 21.16675160268948], [79.59669871823189, 21.16677559721578]], [[79.59730661132198, 21.10219119815574], [79.59728539537053, 21.104449402510422], [79.5943976618482, 21.104425485232344], [79.59441892144139, 21.10216728367533], [79.59441892172336, 21.10216728367767], [79.59730661132198, 21.10219119815574]], [[79.59442104749073, 21.101941453956837], [79.59442104751628, 21.101941451242684], [79.59441892172336, 21.10216728367767], [79.59442104749073, 21.101941453956837]], [[79.58219266653606, 21.22356493218615], [79.5846010248963, 21.223585151298103], [79.58219266653606, 21.223564932186154], [79.58219266653606, 21.22356493218615]], [[79.58798047734496, 21.17212309220298], [79.58800619542494, 21.16941327940321], [79.59089518019647, 21.16943737592378], [79.590869514694, 21.172147192097512], [79.58798047734496, 21.17212309220298]], [[79.58547757510789, 21.131451707510077], [79.58550328451804, 21.128741884639084], [79.58839147755401, 21.128765979777604], [79.58836582059614, 21.13147580602768], [79.58547757510789, 21.131451707510077]], [[79.58575587614614, 21.102095245359926], [79.58575587614615, 21.102095245359926], [79.58573448562942, 21.104353438489454], [79.58575587614614, 21.102095245359926]], [[79.58246046304659, 21.144976643751967], [79.58248624535759, 21.14226682874921], [79.58537469665605, 21.1422909900317], [79.58534896683862, 21.14500080842104], [79.58246046304659, 21.144976643751967]], [[79.58243467664481, 21.147686457857994], [79.58532323293873, 21.14771062591376], [79.58529749495602, 21.15042044250978], [79.58264960343563, 21.1503982853531], [79.58240888618447, 21.15039626764371], [79.58243467664481, 21.147686457857994]], [[79.58216677014529, 21.22627472081055], [79.58216677014529, 21.226274720810547], [79.58457517245861, 21.22629494274764], [79.58216677014529, 21.22627472081055]], [[79.59097215229224, 21.16130792201956], [79.59386098344898, 21.161331959122702], [79.59383538270485, 21.164041781354552], [79.59094649899525, 21.164017740884713], [79.59097215229224, 21.16130792201956]], [[79.59066404415655, 21.193825689175572], [79.59068974222166, 21.191115880183123], [79.59357915191835, 21.191139954326534], [79.5935535064978, 21.19384976668698], [79.59066404415655, 21.193825689175572]], [[79.59605859446108, 21.234520922847317], [79.59608424809929, 21.231811120603453], [79.5989744564683, 21.231835146326958], [79.59894885560048, 21.23454495192679], [79.59605859446108, 21.234520922847317]], [[79.59933244336244, 21.19389777357129], [79.60222191786917, 21.19392170294361], [79.60219642634583, 21.196631524469044], [79.5993068991852, 21.196607591749316], [79.59933244336244, 21.19389777357129]], [[79.6112446141587, 21.156055459241376], [79.60835586385474, 21.156031724572077], [79.60546711756795, 21.1560079406186], [79.60549249601976, 21.153298102300177], [79.608381189777, 21.15332188292182], [79.61126988755107, 21.153345614266183], [79.6112446141587, 21.156055459241376]], [[79.60293404211345, 21.118046336146815], [79.60295941665566, 21.115336488629094], [79.60584737185303, 21.115360271797755], [79.60582204972346, 21.11807012265257], [79.60293404211345, 21.118046336146815]], [[79.59723446495286, 21.109869090420926], [79.59725993218393, 21.107159246913078], [79.60014772212917, 21.107183118389663], [79.60012230728513, 21.109892965248047], [79.59723446495286, 21.109869090420926]], [[79.62277458813448, 21.15885976238142], [79.62274951691352, 21.16156961879626], [79.61986064553682, 21.16154607467157], [79.61697177814462, 21.161522481247744], [79.61699695446094, 21.158812631434905], [79.61702212678479, 21.156102780726265], [79.61704729511644, 21.153392929121928], [79.61993600489107, 21.153416512632745], [79.6228247186492, 21.153440046865136], [79.62571343638254, 21.153463531818826], [79.62860215808273, 21.153486967493528], [79.62857719987649, 21.156196832273334], [79.62855223771139, 21.1589066961579], [79.62566341093917, 21.158883253916056], [79.62568842564446, 21.156173393315118], [79.6227996553796, 21.15614990507101], [79.62277458813448, 21.15885976238142]], [[79.62586341751836, 21.137204344044005], [79.62297501479922, 21.137180878830367], [79.62300005024936, 21.13447101435887], [79.62588840049526, 21.134494476282903], [79.62586341751836, 21.137204344044005]], [[79.62862711233045, 21.15077710181859], [79.62865206261993, 21.1480672352486], [79.63154068323932, 21.148090615091167], [79.63151578546533, 21.150800484937538], [79.62862711233045, 21.15077710181859]], [[79.65452736265168, 21.161825350344674], [79.65455185582483, 21.15911545811244], [79.6516629937199, 21.159092459518366], [79.65168753555193, 21.156382569613317], [79.6545763451138, 21.15640556498591], [79.65746515855955, 21.156428511069805], [79.66035397588082, 21.156451407864754], [79.66032959167899, 21.15916130741356], [79.66321846541155, 21.15918415812005], [79.66319412989455, 21.16189405997567], [79.66316979051801, 21.164603960937242], [79.66028081167238, 21.16458110382886], [79.65739183669494, 21.16455819741052], [79.65736738832082, 21.1672680910688], [79.65447836465148, 21.16724513212586], [79.654502865594, 21.164535241682515], [79.6516138983779, 21.16451223664511], [79.65163844799532, 21.16180234852899], [79.65452736265168, 21.161825350344674]], [[79.64828142840247, 21.213266957185247], [79.64830610085566, 21.21055708841712], [79.65119595896431, 21.210580197667678], [79.65117133922065, 21.213290069666478], [79.64828142840247, 21.213266957185247]], [[79.64838009477461, 21.202427476735185], [79.6484047516018, 21.19971760438234], [79.6512943989558, 21.19974070071133], [79.65126979480475, 21.202450576294396], [79.64838009477461, 21.202427476735185]], [[79.66542596321223, 21.235083962699303], [79.66540360500571, 21.237568004383842], [79.66540360497902, 21.237568007348095], [79.66542596321223, 21.235083962699303]], [[79.68606631889126, 21.18917433929471], [79.6889558056224, 21.18919678085597], [79.68893190144398, 21.19190670138017], [79.68604236206593, 21.191884256678943], [79.68606631889126, 21.18917433929471]], [[79.697457985825, 21.208233299836074], [79.70034785636892, 21.20825556568507], [79.70032413649258, 21.21096549244255], [79.6974342132421, 21.21094322348045], [79.697457985825, 21.208233299836074]], [[79.71795275042307, 21.12166575708202], [79.7155459084079, 21.12164753119731], [79.71795275042307, 21.121665757082017], [79.71795275042307, 21.12166575708202]], [[79.71792945650513, 21.12437573040893], [79.71792945650513, 21.124375730408932], [79.71552257078856, 21.124357501967392], [79.71792945650513, 21.12437573040893]], [[79.71810025422604, 21.132507468656403], [79.71810025410966, 21.132507468655522], [79.71810025399327, 21.13250746865464], [79.71810025415897, 21.132507468655895], [79.71810025422604, 21.132507468656403]], [[79.71791371605691, 21.1541872038587], [79.71791371596973, 21.15418720385804], [79.71791371588256, 21.15418720385738], [79.71791371598769, 21.154187203858175], [79.71791371605691, 21.1541872038587]], [[79.71793704644021, 21.151477240079554], [79.71793704648829, 21.15147724007992], [79.717937046418, 21.151477240079387], [79.71793704644021, 21.151477240079554]], [[79.7175935214623, 21.21922789866193], [79.71759352149199, 21.219227895225927], [79.71879773148277, 21.219237037039676], [79.7175935214623, 21.21922789866193]]], [[[79.59368169297221, 21.180300695906908], [79.59079249377037, 21.180276635234357], [79.59076681198927, 21.182986447818205], [79.59365606380231, 21.183010511858292], [79.59368169297221, 21.180300695906908]]], [[[79.60888265779575, 21.099576505212777], [79.60599500415455, 21.099552790648293], [79.60596970547347, 21.102262646721112], [79.60885741147914, 21.102286364615107], [79.60888265779575, 21.099576505212777]]], [[[79.61461188114087, 21.104591873978553], [79.6117241234783, 21.104568251616293], [79.61169892218867, 21.107278112702062], [79.61458673223163, 21.107301738380254], [79.61461188114087, 21.104591873978553]]], [[[79.61626521899292, 21.237397911929836], [79.61337488088702, 21.237374176441726], [79.61334953585566, 21.240083996920557], [79.61623992675064, 21.240107735723413], [79.61626521899292, 21.237397911929836]]], [[[79.62616295165064, 21.104685871888414], [79.62327517806092, 21.104662446142395], [79.62325018629478, 21.107372320450484], [79.6261380122662, 21.107395749484837], [79.62616295165064, 21.104685871888414]]], [[[79.62028720798145, 21.11547844992969], [79.6203122640638, 21.11276858159875], [79.61742434125294, 21.1127450476373], [79.6173992327646, 21.11545491266577], [79.62028720798145, 21.11547844992969]]], [[[79.61923125549852, 21.229292111231267], [79.61634107170872, 21.22926843515821], [79.61631579147162, 21.23197826164714], [79.6192060280258, 21.23200194102768], [79.61923125549852, 21.229292111231267]]], [[[79.62209626857302, 21.23202557092951], [79.6192060280258, 21.23200194102768], [79.61918079656003, 21.234711769925852], [79.62207108988031, 21.234735403128376], [79.62209626857302, 21.23202557092951]]], [[[79.61915556110088, 21.237421597925696], [79.61918079656003, 21.234711769925852], [79.61629050723315, 21.234688087237704], [79.61626521899292, 21.237397911929836], [79.61915556110088, 21.237421597925696]]], [[[79.63487172003198, 21.099787724940246], [79.6319840305975, 21.09976445264974], [79.63195920320847, 21.102474338439812], [79.63484694501038, 21.102497613997745], [79.63487172003198, 21.099787724940246]]], [[[79.6319136760847, 21.107442460068267], [79.62902584219894, 21.107419129357528], [79.6290009512435, 21.110129009341854], [79.63188883751991, 21.110152343327243], [79.6319136760847, 21.107442460068267]]], [[[79.62897605633474, 21.112838888432556], [79.62608812161301, 21.112815501996657], [79.62606317034361, 21.115525376911858], [79.62895115747232, 21.115548766629534], [79.62897605633474, 21.112838888432556]]], [[[79.640647110699, 21.099834122092105], [79.63775941340194, 21.099810948087796], [79.63773881146311, 21.102069191748164], [79.63773675098723, 21.10229501407111], [79.63773469074806, 21.102520840405823], [79.63771408553639, 21.10477908332202], [79.64060187884793, 21.104802263291404], [79.64062244041321, 21.10254401766376], [79.6435101939975, 21.102567145771275], [79.64353481191492, 21.099857246952894], [79.640647110699, 21.099834122092105]]], [[[79.6405772013768, 21.107512157225997], [79.63768935568193, 21.10748897400278], [79.63766462189943, 21.110198863790362], [79.64055251998592, 21.110222050267527], [79.64344042199244, 21.11024518757473], [79.64346505099137, 21.107535291286148], [79.6405772013768, 21.107512157225997]]], [[[79.64052783467498, 21.112931942415894], [79.63763988418856, 21.112908752684657], [79.637615142549, 21.115618640685575], [79.64050314544369, 21.11564183367099], [79.64339115225906, 21.115664977472633], [79.64341578908179, 21.11295508297026], [79.64052783467498, 21.112931942415894]]], [[[79.64546568523309, 21.205114195990014], [79.64257594033947, 21.20509099437587], [79.64255117031522, 21.207800858454927], [79.64544096790104, 21.207824063313335], [79.64546568523309, 21.205114195990014]]], [[[79.64632832791071, 21.110268275711682], [79.64344042199244, 21.11024518757473], [79.64341578908179, 21.11295508297026], [79.64630374740064, 21.112978174347482], [79.64632832791071, 21.110268275711682]]], [[[79.65783124485525, 21.115779958714644], [79.65494321856117, 21.115757060835996], [79.65491878749692, 21.118466967365706], [79.6578068662095, 21.11848986845725], [79.65783124485525, 21.115779958714644]]], [[[79.66069494879316, 21.11851272035646], [79.6578068662095, 21.11848986845725], [79.65778248369266, 21.121199777307087], [79.66067061870346, 21.1212226324124], [79.66069494879316, 21.11851272035646]]], [[[79.66032959167899, 21.15916130741356], [79.65744072181398, 21.159138407410932], [79.65741628119255, 21.161848302857862], [79.66030520360961, 21.16187120606829], [79.66032959167899, 21.15916130741356]]], [[[79.67120667922116, 21.235129595997403], [79.6711844178443, 21.23761363743539], [79.67116215315413, 21.240097720300653], [79.67405261371032, 21.240120468537363], [79.6740728101705, 21.237862227941992], [79.67407281043737, 21.237862227944092], [79.674074829826, 21.237636402823192], [79.67407684946319, 21.23741057975075], [79.67407684919634, 21.23741057974865], [79.6740970429944, 21.2351523384106], [79.67120667922116, 21.235129595997403]]], [[[79.69177373020841, 21.19734894133214], [79.68888408172296, 21.197326539746197], [79.68886016617974, 21.20003645758785], [79.69174986733742, 21.20005886230718], [79.69177373020841, 21.19734894133214]]], [[[79.68886016617974, 21.20003645758785], [79.68597046881092, 21.200014003466052], [79.68594649679852, 21.20272391727291], [79.6888362468476, 21.20274637453512], [79.68886016617974, 21.20003645758785]]], [[[79.68016700810136, 21.202678854521444], [79.67727726946997, 21.202656249032742], [79.67725313559605, 21.205366152482007], [79.68014292691512, 21.20538876113196], [79.68016700810136, 21.202678854521444]]], [[[79.69463957227569, 21.200081217623783], [79.69174986733742, 21.20005886230718], [79.69172600068589, 21.20276878238796], [79.69461575830505, 21.20279114083116], [79.69463957227569, 21.200081217623783]]], [[[79.70311935733459, 21.221827422485294], [79.70022921941644, 21.221805190528478], [79.70020548075317, 21.22451511281348], [79.70309567141992, 21.224537347877053], [79.70311935733459, 21.221827422485294]]], [[[79.71573247600975, 21.099967732980932], [79.71284468825492, 21.099945837309427], [79.71282132789189, 21.1026558121279], [79.71570916802153, 21.10267771087363], [79.71573247600975, 21.099967732980932]]], [[[79.71830982694361, 21.10811769840132], [79.7180691645192, 21.108115880507196], [79.71804588908832, 21.11082585828648], [79.72093389317615, 21.110847676097467], [79.72095711620672, 21.108137695256286], [79.71855048957332, 21.108119516296995], [79.71857375254639, 21.10540954053317], [79.7156858563305, 21.10538768787633], [79.71566254093632, 21.108097663988936], [79.71830982694361, 21.10811769840132]]], [[[79.71741605406672, 21.183994921526722], [79.71739267501036, 21.186704874345097], [79.71736929224868, 21.189414826270653], [79.72025881956843, 21.189436732923618], [79.7202821496882, 21.186726777933043], [79.72030547611098, 21.184016822049745], [79.71741605406672, 21.183994921526722]]]]}, "properties": {"confidence_band": "Low", "site_id": "bhandara", "cell_count": 1947}}, {"type": "Feature", "geometry": {"type": "MultiPolygon", "coordinates": [[[[79.58836582059614, 21.13147580602768], [79.58839147755401, 21.128765979777604], [79.58550328451804, 21.128741884639084], [79.58547757510789, 21.131451707510077], [79.58836582059614, 21.13147580602768]]], [[[79.58537469665605, 21.1422909900317], [79.58248624535759, 21.14226682874921], [79.58246046304659, 21.144976643751967], [79.58534896683862, 21.14500080842104], [79.58537469665605, 21.1422909900317]]], [[[79.58532323293873, 21.14771062591376], [79.58243467664481, 21.147686457857994], [79.58240888615188, 21.15039627106719], [79.58529749495602, 21.15042044250978], [79.58532323293873, 21.14771062591376]]], [[[79.59386098344898, 21.161331959122702], [79.59097215229224, 21.16130792201956], [79.59094649899525, 21.164017740884713], [79.59383538270485, 21.164041781354552], [79.59386098344898, 21.161331959122702]]], [[[79.59669871823189, 21.16677559721578], [79.59380977790092, 21.16675160268948], [79.59378416903682, 21.16946142312738], [79.59667316193766, 21.169485421013714], [79.59669871823189, 21.16677559721578]]], [[[79.5995111393108, 21.174929021193932], [79.6024002454737, 21.174952927137692], [79.60528935567275, 21.174976783749518], [79.60531476231002, 21.172266951706263], [79.6053401649198, 21.169557118766274], [79.60822917397925, 21.169580919380678], [79.60825451999068, 21.16687108221163], [79.6082798619836, 21.16416124414615], [79.60539095805821, 21.16413745019647], [79.60536556350242, 21.166847284929645], [79.60247661104097, 21.16682343833615], [79.59958766261468, 21.16679954243143], [79.59956215889066, 21.16950936958251], [79.59953665112282, 21.172219195836707], [79.5995111393108, 21.174929021193932]]], [[[79.59089518019647, 21.16943737592378], [79.58800619542494, 21.16941327940321], [79.58798047734496, 21.17212309220298], [79.590869514694, 21.172147192097512], [79.59089518019647, 21.16943737592378]]], [[[79.59664760159127, 21.172195243914672], [79.59375855611223, 21.172171242668174], [79.59373293912682, 21.174881061311755], [79.59662203719242, 21.174905065918523], [79.59664760159127, 21.172195243914672]]], [[[79.5908438451224, 21.174857007373916], [79.58795475518747, 21.174832904105294], [79.58792902895217, 21.17754271511007], [79.5908181714813, 21.177566821752894], [79.5908438451224, 21.174857007373916]]], [[[79.5908181714813, 21.177566821752894], [79.59079249377037, 21.180276635234357], [79.5879032986387, 21.180252525217213], [79.58787756424674, 21.182962334426627], [79.58785182577594, 21.185672142738206], [79.59074112613769, 21.18569625950435], [79.59071543621525, 21.188406070292686], [79.59360479327572, 21.188430141068196], [79.59363043057026, 21.185720326912087], [79.59651973906536, 21.185744344961126], [79.59654531967752, 21.183034526546592], [79.59657089623586, 21.18032470723458], [79.59946010355301, 21.180348669217082], [79.59943457960654, 21.18305849188282], [79.60232384358106, 21.18308240786668], [79.60234931491532, 21.180372581854122], [79.60523853031444, 21.18039644514542], [79.60526394500768, 21.17768661489593], [79.60237478221275, 21.17766275494443], [79.59948562345433, 21.17763884565409], [79.5995111393108, 21.174929021193932], [79.59662203719242, 21.174905065918523], [79.59659646874071, 21.177614887025193], [79.59370731808026, 21.17759087905803], [79.5908181714813, 21.177566821752894]], [[79.59368169297221, 21.180300695906908], [79.59365606380231, 21.183010511858292], [79.59076681198927, 21.182986447818205], [79.59079249377037, 21.180276635234357], [79.59368169297221, 21.180300695906908]]], [[[79.60224740535403, 21.191211880520562], [79.60513683125335, 21.191235757172215], [79.6051622620625, 21.188525930511382], [79.6051876888422, 21.18581610295324], [79.60521311159272, 21.18310627449789], [79.60232384358106, 21.18308240786668], [79.60229836820965, 21.185792232982003], [79.60227288880075, 21.18850205719999], [79.60224740535403, 21.191211880520562]]], [[[79.59357915191835, 21.191139954326534], [79.59068974222166, 21.191115880183123], [79.59066404415655, 21.193825689175572], [79.5935535064978, 21.19384976668698], [79.59357915191835, 21.191139954326534]]], [[[79.60222191786917, 21.19392170294361], [79.59933244336244, 21.19389777357129], [79.5993068991852, 21.196607591749316], [79.60219642634583, 21.196631524469044], [79.60222191786917, 21.19392170294361]]], [[[79.63151578546533, 21.150800484937538], [79.63154068323932, 21.148090615091167], [79.62865206261993, 21.1480672352486], [79.62862711233045, 21.15077710181859], [79.63151578546533, 21.150800484937538]]], [[[79.6314659780674, 21.15622022194538], [79.63435476020881, 21.156243562330967], [79.63724354629244, 21.156266853429827], [79.64013233630993, 21.15629009524167], [79.64010758430877, 21.158999972191705], [79.6429964307936, 21.15902316796537], [79.64302113025295, 21.156313287766224], [79.64590992811317, 21.1563364310032], [79.64593457112154, 21.153626546667308], [79.64882332035653, 21.15364963738124], [79.64884790693057, 21.15093974891582], [79.64595921022135, 21.15091666143696], [79.64598384541294, 21.14820677531225], [79.64600847669661, 21.14549688829328], [79.64311988892155, 21.14547375802398], [79.64023130506241, 21.145450578494717], [79.64025603743912, 21.142740697071748], [79.63736751000404, 21.142717471538248], [79.63734272512751, 21.145427349705773], [79.63731793631841, 21.148137226978793], [79.63729314357641, 21.150847103357204], [79.6344044625501, 21.15082381878383], [79.63437961335039, 21.153533691004853], [79.63149088374146, 21.15351035388897], [79.6314659780674, 21.15622022194538]]], [[[79.61126988755107, 21.153345614266183], [79.608381189777, 21.15332188292182], [79.60549249601976, 21.153298102300177], [79.60546711756795, 21.1560079406186], [79.60835586385474, 21.156031724572077], [79.6112446141587, 21.156055459241376], [79.61126988755107, 21.153345614266183]]], [[[79.62857719987649, 21.156196832273334], [79.62860215808273, 21.153486967493528], [79.62571343638254, 21.153463531818826], [79.6228247186492, 21.153440046865136], [79.61993600489107, 21.153416512632745], [79.61704729511644, 21.153392929121928], [79.61702212678479, 21.156102780726265], [79.61699695446094, 21.158812631434905], [79.61697177814462, 21.161522481247744], [79.61986064553682, 21.16154607467157], [79.62274951691352, 21.16156961879626], [79.62277458813448, 21.15885976238142], [79.6227996553796, 21.15614990507101], [79.62568842564446, 21.156173393315118], [79.62566341093917, 21.158883253916056], [79.62855223771139, 21.1589066961579], [79.62857719987649, 21.156196832273334]]], [[[79.61116876992716, 21.164184988790936], [79.61119405534706, 21.161475146503843], [79.61121933675746, 21.15876530332062], [79.6083305339153, 21.15874156532628], [79.60830519995837, 21.161451405184334], [79.6082798619836, 21.16416124414615], [79.61116876992716, 21.164184988790936]]], [[[79.64010758430877, 21.158999972191705], [79.63721874174982, 21.15897672712385], [79.63719393327298, 21.16168659992288], [79.64008282838175, 21.16170984824687], [79.64010758430877, 21.158999972191705]]], [[[79.60541634858751, 21.16142761456684], [79.6025275012428, 21.16140377465164], [79.6025020581593, 21.16411360694218], [79.60539095805821, 21.16413745019647], [79.60541634858751, 21.16142761456684]]], [[[79.60802626118247, 21.19125958445021], [79.60513683125335, 21.191235757172215], [79.60511139641437, 21.19394558293565], [79.60800087898973, 21.193969413547123], [79.60802626118247, 21.19125958445021]]], [[[79.6108903655869, 21.193993194777747], [79.60800087898973, 21.193969413547123], [79.60797549277518, 21.196679241746654], [79.61086503202722, 21.19670302630397], [79.6108903655869, 21.193993194777747]]], [[[79.6367964623296, 21.205044442912218], [79.63677158692194, 21.207754300482033], [79.63966137665274, 21.207777604177732], [79.64255117031522, 21.207800858454927], [79.64257594033947, 21.20509099437587], [79.63968619936885, 21.205067743349844], [79.6367964623296, 21.205044442912218]]], [[[79.65173660753969, 21.150962787120367], [79.65176113769604, 21.148252894532646], [79.6488724896047, 21.14822985955616], [79.64884790693057, 21.15093974891582], [79.65173660753969, 21.150962787120367]]], [[[79.64874953723181, 21.161779297411087], [79.6487741355075, 21.159069411628966], [79.64879872988229, 21.156359524952325], [79.64590992811317, 21.1563364310032], [79.64588528119594, 21.159046314444545], [79.6458606303695, 21.16175619699125], [79.64874953723181, 21.161779297411087]]], [[[79.65447836465148, 21.16724513212586], [79.65736738832082, 21.1672680910688], [79.65739183669494, 21.16455819741052], [79.66028081167238, 21.16458110382886], [79.66316979051801, 21.164603960937242], [79.66319412989455, 21.16189405997567], [79.66321846541155, 21.15918415812005], [79.66032959167899, 21.15916130741356], [79.66035397588082, 21.156451407864754], [79.65746515855955, 21.156428511069805], [79.6545763451138, 21.15640556498591], [79.65168753555193, 21.156382569613317], [79.6516629937199, 21.159092459518366], [79.65455185582483, 21.15911545811244], [79.65452736265168, 21.161825350344674], [79.65163844799532, 21.16180234852899], [79.6516138983779, 21.16451223664511], [79.654502865594, 21.164535241682515], [79.65447836465148, 21.16724513212586]], [[79.66030520360961, 21.16187120606829], [79.65741628119255, 21.161848302857862], [79.65744072181398, 21.159138407410932], [79.66032959167899, 21.15916130741356], [79.66030520360961, 21.16187120606829]]], [[[79.63973583300731, 21.199648019004734], [79.64262546861922, 21.199671263528753], [79.64260070644067, 21.202381129400447], [79.64257594033947, 21.20509099437587], [79.64546568523309, 21.205114195990014], [79.64549039865047, 21.202404327770438], [79.6455151081535, 21.19969445865472], [79.6455398137425, 21.19698458864293], [79.64265022687538, 21.196961396760884], [79.6397606439303, 21.196938155487686], [79.63973583300731, 21.199648019004734]]], [[[79.6512943989558, 21.19974070071133], [79.6484047516018, 21.19971760438234], [79.64838009477461, 21.202427476735185], [79.65126979480475, 21.202450576294396], [79.6512943989558, 21.19974070071133]]], [[[79.64835543404139, 21.205137348192], [79.64546568523309, 21.205114195990014], [79.64544096790104, 21.207824063313335], [79.64833076940185, 21.207847218752672], [79.64835543404139, 21.205137348192]]], [[[79.64544096790104, 21.207824063313335], [79.64255117031522, 21.207800858454927], [79.64252639636763, 21.210510721637533], [79.64541624665398, 21.210533929740315], [79.64544096790104, 21.207824063313335]]], [[[79.65119595896431, 21.210580197667678], [79.64830610085566, 21.21055708841712], [79.64828142840247, 21.213266957185247], [79.65117133922065, 21.213290069666478], [79.65119595896431, 21.210580197667678]]], [[[79.72065492902112, 21.14336737673824], [79.72067819633348, 21.140657406584268], [79.71778961529267, 21.140635555085264], [79.7177662954801, 21.143345522176055], [79.72065492902112, 21.14336737673824]]], [[[79.65753844554416, 21.148298816682253], [79.65464978967864, 21.14827588024144], [79.65462531204038, 21.15098577605031], [79.65751402042432, 21.151008715705373], [79.65753844554416, 21.148298816682253]]], [[[79.65462531204038, 21.15098577605031], [79.65173660753969, 21.150962787120367], [79.65171207349175, 21.153672678813955], [79.65460083051887, 21.153695670965167], [79.65462531204038, 21.15098577605031]]], [[[79.66040273268315, 21.151031606085287], [79.65751402042432, 21.151008715705373], [79.65748959142954, 21.153718613834595], [79.66037835621545, 21.153741507421962], [79.66040273268315, 21.151031606085287]]], [[[79.70922937842266, 21.183932601973694], [79.7092058502395, 21.186642546070622], [79.71209531439725, 21.186664589541106], [79.7120718351262, 21.189374535829497], [79.7149613556459, 21.189396533007603], [79.7149379253036, 21.192106481480685], [79.71491449124842, 21.19481642906066], [79.71780412078905, 21.194838383003418], [79.7178275021859, 21.192128432352447], [79.7178275022155, 21.19212842892125], [79.72023548575136, 21.192146687021392], [79.72025881956843, 21.189436732923618], [79.71785087990777, 21.189418477377753], [79.71787425386624, 21.186708528371607], [79.71789762415037, 21.183998575041933], [79.71789762417994, 21.183998571612168], [79.72030547611098, 21.184016822049745], [79.72032879883709, 21.181306865273825], [79.71768020969677, 21.181286792599963], [79.7150316243985, 21.181266682230703], [79.71214226177783, 21.181244694285343], [79.71216572988796, 21.178534745318156], [79.70927642360331, 21.17851271110082], [79.7063871210467, 21.178490627534405], [79.70636354770483, 21.181200570326137], [79.70925290287715, 21.18122265698373], [79.70922937842266, 21.183932601973694]]], [[[79.72009540518873, 21.208406392853725], [79.71720550914203, 21.208384464742533], [79.71718209672672, 21.2110944095221], [79.72007204548207, 21.21111634069919], [79.72009540518873, 21.208406392853725]]]]}, "properties": {"confidence_band": "Very High", "site_id": "bhandara", "cell_count": 112}}, {"type": "Feature", "geometry": {"type": "MultiPolygon", "coordinates": [[[[79.60592331411982, 21.107230713865224], [79.60881111614863, 21.107254437863627], [79.60878585846773, 21.10996429473223], [79.60589800405089, 21.10994056740399], [79.6030101536539, 21.109916790909164], [79.60298478716905, 21.11262664021651], [79.60587268996206, 21.112650420048194], [79.60876059677527, 21.112674150706404], [79.61164850760035, 21.112697832190843], [79.61162329430101, 21.115407690593646], [79.61451126153501, 21.115431326220328], [79.61448609664542, 21.11814118704502], [79.61737412028899, 21.118164776799958], [79.6173490038258, 21.120874640039773], [79.62023708387957, 21.120898183909], [79.62026214792014, 21.11818831736647], [79.62315017953057, 21.118211808744295], [79.62317518717721, 21.115501938011814], [79.62606317034361, 21.115525376911858], [79.62603821511192, 21.11823525093313], [79.6260132559176, 21.120945124060377], [79.6289013478852, 21.12096852034196], [79.62892625465591, 21.118258643932705], [79.6318142981542, 21.118281987742733], [79.63178944380743, 21.120991867427097], [79.63176458551435, 21.12370174621757], [79.63465273781546, 21.123725047374304], [79.63467754367595, 21.121015165315505], [79.63470234559847, 21.118305282362932], [79.63472714358332, 21.115595398516675], [79.637615142549, 21.115618640685575], [79.63763988418856, 21.112908752684657], [79.64052783467498, 21.112931942415894], [79.64341578908179, 21.11295508297026], [79.64339115225906, 21.115664977472633], [79.64627916298683, 21.11568807209024], [79.64916717761865, 21.11571111752351], [79.64914264171834, 21.118421017606742], [79.65203071266376, 21.118444017082112], [79.65200622529359, 21.121153919499033], [79.65489435255324, 21.12117687300254], [79.65486991372985, 21.123886777746385], [79.6577580973044, 21.123909685264046], [79.66064628475068, 21.123932543575584], [79.66353447606038, 21.123955352680714], [79.66642267122515, 21.123978112579156], [79.66639843829749, 21.126688029241457], [79.66928668975376, 21.126710743118576], [79.67217494504878, 21.126733407781565], [79.67215081318051, 21.12944332991572], [79.67503912475965, 21.129465948536247], [79.67792744016121, 21.129488517935187], [79.67790340938656, 21.132198445513943], [79.68079178106485, 21.13222096884929], [79.68081575937688, 21.12951103811229], [79.68083973388312, 21.12680110648303], [79.68372800444992, 21.126823574286778], [79.68661627881384, 21.12684599287504], [79.68950455696657, 21.126868362247542], [79.68952837032748, 21.124158420293476], [79.69241659981346, 21.124180737319538], [79.69244035695527, 21.121470791343437], [79.69532853777385, 21.1214930560367], [79.69535223871323, 21.118783106045775], [79.6982403708638, 21.118805318419884], [79.69821672235565, 21.121515271527205], [79.70110491069235, 21.12153743781468], [79.70399310277561, 21.121559554898855], [79.7040166464204, 21.11884959557946], [79.70112850676897, 21.118827481597876], [79.70115209909932, 21.116117524489958], [79.70404018632723, 21.116139635369077], [79.70692827729279, 21.11616169705842], [79.70981637198764, 21.11618370955775], [79.70983980332555, 21.113473742272415], [79.71272784932528, 21.11349570249979], [79.71561589903739, 21.1135176135435], [79.71802260998999, 21.113535831758277], [79.71802260996063, 21.11353583517556], [79.71826328105222, 21.113537653579506], [79.71850395245352, 21.1135394754033], [79.71850395248286, 21.113539471986012], [79.7209106664571, 21.113557656048563], [79.72093389317615, 21.110847676097467], [79.71852722287579, 21.110829494586596], [79.71854855069184, 21.10834534665834], [79.72071451794956, 21.108361710988095], [79.72073774196535, 21.10565172958598], [79.71784983861187, 21.10562991354652], [79.71782850194344, 21.10811405577883], [79.71566254093632, 21.108097663988936], [79.7156858563305, 21.10538768787633], [79.71761112011042, 21.105402256311468], [79.71761112006348, 21.105402261776828], [79.71809243683703, 21.10540589842617], [79.71857375254639, 21.10540954053317], [79.7185737525933, 21.105409535067825], [79.72049901874351, 21.105424081658054], [79.72052224312866, 21.102714099546795], [79.72054546382483, 21.100004116545716], [79.71813896854268, 21.09998593841337], [79.71573247600975, 21.099967732980932], [79.71570916802153, 21.10267771087363], [79.71282132789189, 21.1026558121279], [79.71284468825492, 21.099945837309427], [79.70995690421094, 21.09992389248878], [79.70706912388611, 21.099901898519235], [79.70418134728875, 21.099879855401078], [79.7012935744272, 21.09985776313456], [79.69840580530973, 21.09983562171994], [79.69551803994472, 21.099813431157514], [79.69263027834043, 21.099791191447515], [79.6897425205052, 21.099768902590235], [79.68685476644737, 21.099746564585928], [79.68396701617523, 21.099724177434872], [79.6810792696971, 21.099701741137334], [79.6781915270213, 21.099679255693584], [79.67530378815616, 21.099656721103884], [79.67241605310996, 21.099634137368522], [79.66952832189106, 21.09961150448775], [79.66664059450775, 21.099588822461858], [79.66375287096838, 21.099566091291113], [79.66375056138872, 21.099824177975208], [79.661000347482, 21.09980248437743], [79.66097836093519, 21.102254314205638], [79.66084084822425, 21.10225322927834], [79.66084084795561, 21.102253229276215], [79.66086110103984, 21.09999496408816], [79.65797337648566, 21.099972134094315], [79.6550856558004, 21.099949254955288], [79.65219793899239, 21.099926326671355], [79.64931022606993, 21.099903349242794], [79.64642251704133, 21.099880322669883], [79.64353481191492, 21.099857246952894], [79.6435142969832, 21.10211549602803], [79.64062655239967, 21.10209236846382], [79.64060187884793, 21.104802263291404], [79.63771408553639, 21.10477908332202], [79.63773469047477, 21.102520840403624], [79.63773469074806, 21.102520840405823], [79.63773675098723, 21.10229501407111], [79.63773881146311, 21.102069191748164], [79.63773881118983, 21.102069191745965], [79.63775941340194, 21.099810948087796], [79.63487172003198, 21.099787724940246], [79.6348510741801, 21.10204596588131], [79.63196334138054, 21.102022690870157], [79.63196334110609, 21.10202269086794], [79.6319840305975, 21.09976445264974], [79.62909634510676, 21.099741131216543], [79.62620866356812, 21.09971776064095], [79.62332098598988, 21.09969434092324], [79.62043331238036, 21.09967087206369], [79.61754564274786, 21.099647354062586], [79.61465797710072, 21.09962378692021], [79.61177031544725, 21.099600170636844], [79.60888265779575, 21.099576505212777], [79.60886161919801, 21.10183472144119], [79.6059739221994, 21.101811004104412], [79.60597392191976, 21.10181100410211], [79.60599500415455, 21.099552790648293], [79.60310735453197, 21.09952902694367], [79.6030841161453, 21.102013050980286], [79.60306087453935, 21.10449708961054], [79.60303551611055, 21.107206940707137], [79.60592331411982, 21.107230713865224]], [[79.62608812161301, 21.112815501996657], [79.62897605633474, 21.112838888432556], [79.62895115747232, 21.115548766629534], [79.62606317034361, 21.115525376911858], [79.62608812161301, 21.112815501996657]], [[79.64344042199244, 21.11024518757473], [79.64632832791071, 21.110268275711682], [79.64630374740064, 21.112978174347482], [79.64341578908179, 21.11295508297026], [79.64344042199244, 21.11024518757473]], [[79.64055251998592, 21.110222050267527], [79.63766462189943, 21.110198863790362], [79.63768935568193, 21.10748897400278], [79.6405772013768, 21.107512157225997], [79.64346505099137, 21.107535291286148], [79.64344042199244, 21.11024518757473], [79.64055251998592, 21.110222050267527]], [[79.62028720798145, 21.11547844992969], [79.6173992327646, 21.11545491266577], [79.61742434125294, 21.1127450476373], [79.6203122640638, 21.11276858159875], [79.62028720798145, 21.11547844992969]], [[79.61461188114087, 21.104591873978553], [79.61458673223163, 21.107301738380254], [79.61169892218867, 21.107278112702062], [79.6117241234783, 21.104568251616293], [79.61461188114087, 21.104591873978553]], [[79.62327517806092, 21.104662446142395], [79.62616295165064, 21.104685871888414], [79.6261380122662, 21.107395749484837], [79.62325018629478, 21.107372320450484], [79.62327517806092, 21.104662446142395]], [[79.6319136760847, 21.107442460068267], [79.63188883751991, 21.110152343327243], [79.6290009512435, 21.110129009341854], [79.62902584219894, 21.107419129357528], [79.6319136760847, 21.107442460068267]], [[79.65494321856117, 21.115757060835996], [79.65783124485525, 21.115779958714644], [79.6578068662095, 21.11848986845725], [79.65491878749692, 21.118466967365706], [79.65494321856117, 21.115757060835996]], [[79.66069494879316, 21.11851272035646], [79.66067061870346, 21.1212226324124], [79.65778248369266, 21.121199777307087], [79.6578068662095, 21.11848986845725], [79.66069494879316, 21.11851272035646]], [[79.71828655603096, 21.110827676436905], [79.71828655594138, 21.11082767643623], [79.71563922183871, 21.110807639211362], [79.71828655603096, 21.110827676436905]]], [[[79.59728539537053, 21.104449402510422], [79.59731085451294, 21.101739557213048], [79.5944231733607, 21.10171564329217], [79.5943976618482, 21.104425485232344], [79.59728539537053, 21.104449402510422]]], [[[79.60012230728513, 21.109892965248047], [79.60014772212917, 21.107183118389663], [79.59725993218393, 21.107159246913078], [79.59723446495286, 21.109869090420926], [79.60012230728513, 21.109892965248047]]], [[[79.60582204972346, 21.11807012265257], [79.60584737185303, 21.115360271797755], [79.60295941665566, 21.115336488629094], [79.60293404211345, 21.118046336146815], [79.60582204972346, 21.11807012265257]]], [[[79.61159807699778, 21.118117548101957], [79.61162329430101, 21.115407690593646], [79.6087353310709, 21.115384005786034], [79.60871006135433, 21.118093859971044], [79.61159807699778, 21.118117548101957]]], [[[79.60183912079172, 21.23456893152266], [79.60181356865114, 21.237278739572524], [79.60470389066526, 21.23730267302676], [79.60467838726862, 21.240012483519887], [79.6075687661063, 21.240036370818498], [79.61045914897143, 21.240060208618818], [79.61334953585566, 21.240083996920557], [79.61337488088702, 21.237374176441726], [79.61626521899292, 21.237397911929836], [79.61623992675064, 21.240107735723413], [79.61913032164802, 21.24013142502712], [79.62202072053941, 21.240155064831377], [79.62491112341652, 21.240178655135914], [79.62493625728956, 21.237468821439546], [79.62782661135361, 21.237492358956963], [79.6278516884676, 21.234782521075413], [79.6249613871856, 21.23475898684499], [79.62498651310496, 21.23204915135234], [79.62787676161325, 21.232072682295886], [79.63076701408954, 21.232096163759874], [79.63365727052549, 21.232119595744013], [79.63368223417145, 21.229409749513824], [79.63370719386641, 21.22669990238607], [79.63081704295413, 21.226676476947688], [79.63079203050151, 21.229386320802618], [79.62790183079089, 21.229362842618475], [79.62792689600086, 21.226653002043278], [79.62503675301492, 21.226629477673118], [79.6250618670062, 21.22391963948675], [79.62217178074428, 21.223896068944565], [79.61928169846611, 21.223872448944125], [79.61639162017998, 21.223848779485692], [79.61350154589428, 21.223825060569567], [79.61347622091168, 21.226534885540744], [79.61345089191998, 21.229244709613646], [79.61056071614067, 21.229220934597844], [79.61058609788773, 21.22651111384613], [79.61061147561733, 21.223801292196026], [79.61063684932985, 21.221091469647618], [79.60774683580834, 21.221067655144818], [79.6077214093575, 21.223777474365363], [79.60483134712311, 21.22375360707786], [79.60480586390047, 21.22646342206509], [79.6047803766437, 21.229173236153695], [79.60475488535248, 21.23188304934357], [79.60472939002643, 21.23459286163462], [79.60183912079172, 21.23456893152266]], [[79.61629050723315, 21.234688087237704], [79.61918079656003, 21.234711769925852], [79.61915556110088, 21.237421597925696], [79.61626521899292, 21.237397911929836], [79.61629050723315, 21.234688087237704]], [[79.6192060280258, 21.23200194102768], [79.62209626857302, 21.23202557092951], [79.62207108988031, 21.234735403128376], [79.61918079656003, 21.234711769925852], [79.6192060280258, 21.23200194102768]], [[79.61631579147162, 21.23197826164714], [79.61634107170872, 21.22926843515821], [79.61923125549852, 21.229292111231267], [79.6192060280258, 21.23200194102768], [79.61631579147162, 21.23197826164714]]], [[[79.59894885560048, 21.23454495192679], [79.5989744564683, 21.231835146326958], [79.59608424809929, 21.231811120603453], [79.59605859446108, 21.234520922847317], [79.59894885560048, 21.23454495192679]]], [[[79.64339115225906, 21.115664977472633], [79.64050314544369, 21.11564183367099], [79.637615142549, 21.115618640685575], [79.6375903969804, 21.11832852779302], [79.64047845229169, 21.11835172403273], [79.64336651152398, 21.118374871081773], [79.64339115225906, 21.115664977472633]]], [[[79.62586341751836, 21.137204344044005], [79.62588840049526, 21.134494476282903], [79.62300005024936, 21.13447101435887], [79.62297501479922, 21.137180878830367], [79.62586341751836, 21.137204344044005]]], [[[79.63363230292823, 21.23482944107655], [79.63360733137932, 21.237539285511346], [79.63358235587849, 21.240249129048298], [79.63647277461483, 21.240272521351077], [79.63649769732432, 21.237562674547757], [79.63652261609016, 21.234852826846705], [79.63363230292823, 21.23482944107655]]], [[[79.64514405445411, 21.240342401251432], [79.64516881878747, 21.237632544690463], [79.64227844103672, 21.23760930413759], [79.642253623911, 21.240319157452923], [79.64514405445411, 21.240342401251432]]], [[[79.66637420152276, 21.129397945011036], [79.66639843829749, 21.126688029241457], [79.66351019068829, 21.126665266150486], [79.66348590146082, 21.12937517872742], [79.66637420152276, 21.129397945011036]]], [[[79.66346160837762, 21.13208509041144], [79.66348590146082, 21.12937517872742], [79.66059760525458, 21.129352363223326], [79.66057325971063, 21.13206227170769], [79.66346160837762, 21.13208509041144]]], [[[79.66918992943145, 21.137550413583277], [79.66916572975163, 21.140260328967234], [79.67205424739682, 21.140283009525525], [79.67207839458995, 21.137573090962288], [79.6721025379514, 21.134863171506176], [79.66921412527127, 21.134840497306342], [79.6663257164308, 21.13481777387167], [79.66630146811296, 21.13752768696253], [79.66918992943145, 21.137550413583277]]], [[[79.66545035027018, 21.232374081819295], [79.6683406535707, 21.232396920023415], [79.67123096072234, 21.232419708744057], [79.67120667922116, 21.235129595997403], [79.6740970429944, 21.2351523384106], [79.674074829826, 21.237636402823192], [79.67405261371032, 21.240120468537363], [79.6769430781018, 21.240143167270478], [79.67983354632024, 21.240165816499708], [79.68272401835728, 21.240188416224786], [79.68561449420454, 21.24021096644545], [79.6885049738537, 21.240233467161413], [79.69139545729641, 21.240255918372426], [79.69428594452428, 21.240278320078193], [79.697176435529, 21.240300672278458], [79.70006693030219, 21.240322974972955], [79.70295742883552, 21.240345228161402], [79.7058479311206, 21.240367431843538], [79.70587158611681, 21.23765750857152], [79.70298113662935, 21.23763530798986], [79.7029811363683, 21.237635307987848], [79.70300089025848, 21.235377040496466], [79.70589129575433, 21.235399238494484], [79.7059149438884, 21.23268931358168], [79.70302459117488, 21.232667118683946], [79.70013424221224, 21.232644874299478], [79.70015799215139, 21.22993495469908], [79.7001817383316, 21.22722503420372], [79.70307198175529, 21.227247272374143], [79.70304828834037, 21.22995719597647], [79.70593858827993, 21.229979387774048], [79.70596222892924, 21.227269461071664], [79.70598586583662, 21.22455953347462], [79.70600949900239, 21.22184960498303], [79.70311935733459, 21.221827422485294], [79.70309567141992, 21.224537347877053], [79.70020548075317, 21.22451511281348], [79.70022921941644, 21.221805190528478], [79.6973390852563, 21.221782909112843], [79.6973628729015, 21.2190729890467], [79.69738665678067, 21.216363068085855], [79.69449663185777, 21.21634074345248], [79.69452046469414, 21.213630824717274], [79.69454429375673, 21.210920905087438], [79.69165437804483, 21.21089853726379], [79.69163049626796, 21.21360845376659], [79.69160661070897, 21.216318369374655], [79.69158272136757, 21.219028284087884], [79.68869265127053, 21.219005857431693], [79.68866870540738, 21.221715768115732], [79.68577858636274, 21.22169328886753], [79.68580258496459, 21.21898338132468], [79.68291252245805, 21.218960855767104], [79.6829365699905, 21.216250950477104], [79.685826579767, 21.216273472886694], [79.68585057077027, 21.213563563553652], [79.68587455797476, 21.21085365332566], [79.6829846536333, 21.210831137211716], [79.68296061371547, 21.21354104429194], [79.68007066046782, 21.213518475593766], [79.67718071103566, 21.213495857459396], [79.67715656186826, 21.216205757328076], [79.68004656402147, 21.21622837862414], [79.68002246375931, 21.218938280759247], [79.6771324088767, 21.218915656301373], [79.67424235781857, 21.218892982393758], [79.67135231059325, 21.218870259036677], [79.67132804830267, 21.22158015076993], [79.66843795218172, 21.221557374781003], [79.66841363330451, 21.224267262435703], [79.66838931057715, 21.2269771491944], [79.66836498399933, 21.229687035057005], [79.66547473346867, 21.229664200042894], [79.66545035027018, 21.232374081819295]], [[79.67696323056659, 21.23788492403377], [79.6769632305666, 21.23788492403377], [79.6769430781018, 21.240143167270478], [79.67696323056659, 21.23788492403377]], [[79.68852495033423, 21.23797521341701], [79.68852495033424, 21.23797521341701], [79.6885049738537, 21.240233467161413], [79.68852495033423, 21.23797521341701]], [[79.68854891921441, 21.235265308107177], [79.68852894536704, 21.237523562593886], [79.68852894536703, 21.237523562593886], [79.68854891921441, 21.235265308107177]]], [[[79.67116215315413, 21.240097720300653], [79.67118239360946, 21.237839482352367], [79.67118239387692, 21.237839482354477], [79.6711844178443, 21.23761363743539], [79.67118644170117, 21.237387834690537], [79.67118644143375, 21.237387834688427], [79.67120667922116, 21.235129595997403], [79.66831631929098, 21.235106804093547], [79.66829400943652, 21.23759085263629], [79.6682716964416, 21.240074922560613], [79.67116215315413, 21.240097720300653]]], [[[79.66538124358107, 21.24005207531752], [79.66540563771551, 21.23734219608116], [79.66251524150856, 21.237319302532526], [79.66249079458089, 21.240029178571653], [79.66538124358107, 21.24005207531752]]], [[[79.67790340938656, 21.132198445513943], [79.67501504152266, 21.132175872949855], [79.67212667748149, 21.132153251157284], [79.6721025379514, 21.134863171506176], [79.67499095446291, 21.1348857964709], [79.67787937479748, 21.134908372200254], [79.67790340938656, 21.132198445513943]]], [[[79.67443589629124, 21.19721379088856], [79.67732552575038, 21.197236439449576], [79.6773496481575, 21.194526533315866], [79.6744600713607, 21.19450388792267], [79.67443589629124, 21.19721379088856]]], [[[79.67720485637922, 21.210785956695425], [79.68009475309867, 21.210808571668213], [79.6829846536333, 21.210831137211716], [79.68300868974428, 21.208121229236525], [79.68589854138075, 21.20814374220281], [79.68878839681541, 21.20816620574618], [79.68881232372627, 21.20545629058793], [79.69170213025349, 21.205478701574382], [79.69459194056188, 21.20550106314429], [79.69461575830505, 21.20279114083116], [79.69172600068589, 21.20276878238796], [79.69174986733742, 21.20005886230718], [79.68886016617974, 21.20003645758785], [79.68888408172296, 21.197326539746197], [79.68599443702608, 21.197304088764696], [79.68601840144431, 21.194594173168962], [79.68312881320763, 21.19457167593928], [79.68023922877592, 21.19454912932149], [79.68021515903145, 21.197259038616117], [79.68019108547337, 21.19996894701613], [79.6773013995213, 21.19994634468857], [79.67727726946997, 21.202656249032742], [79.67438753466115, 21.20263359413575], [79.67441171739151, 21.199923692959622], [79.67443589629124, 21.19721379088856], [79.67154627066242, 21.19719109293336], [79.67152203909232, 21.199900991829576], [79.67149780368327, 21.202610889830748], [79.66860807654466, 21.202588136118003], [79.6685837846096, 21.205298030042076], [79.67147356443495, 21.20532078693679], [79.67436334809989, 21.20534349441686], [79.67433915770737, 21.208053393802853], [79.67722899789923, 21.20807605503627], [79.67720485637922, 21.210785956695425]], [[79.6888362468476, 21.20274637453512], [79.68594649679852, 21.20272391727291], [79.68597046881092, 21.200014003466052], [79.68886016617974, 21.20003645758785], [79.6888362468476, 21.20274637453512]], [[79.68016700810136, 21.202678854521444], [79.68014292691512, 21.20538876113196], [79.67725313559605, 21.205366152482007], [79.67727726946997, 21.202656249032742], [79.68016700810136, 21.202678854521444]]], [[[79.6684622672091, 21.2188474862304], [79.67135231059325, 21.218870259036677], [79.67137656904266, 21.216160366407724], [79.66848657838696, 21.216137596783984], [79.6684622672091, 21.2188474862304]]], [[[79.68604236206593, 21.191884256678943], [79.68893190144398, 21.19190670138017], [79.6889558056224, 21.18919678085597], [79.68606631889126, 21.18917433929471], [79.68604236206593, 21.191884256678943]]], [[[79.68888408172296, 21.197326539746197], [79.69177373020841, 21.19734894133214], [79.69174986733742, 21.20005886230718], [79.69463957227569, 21.200081217623783], [79.69461575830505, 21.20279114083116], [79.69750551969672, 21.202813449864443], [79.69752928098615, 21.200103523537393], [79.69755303851171, 21.19739359631628], [79.69466338247412, 21.19737129352226], [79.69468718890064, 21.194661368526678], [79.69757679227372, 21.194683668201236], [79.6976005422725, 21.191973739192335], [79.6947109915556, 21.191951442637137], [79.69182144460999, 21.191929096699656], [79.69179758929916, 21.194639019462937], [79.68890799347761, 21.194616621010276], [79.68888408172296, 21.197326539746197]]], [[[79.6974342132421, 21.21094322348045], [79.70032413649258, 21.21096549244255], [79.70034785636892, 21.20825556568507], [79.697457985825, 21.208233299836074], [79.6974342132421, 21.21094322348045]]], [[[79.70022921941644, 21.221805190528478], [79.70311935733459, 21.221827422485294], [79.70314303949961, 21.219117496198965], [79.7002529543217, 21.219095267348784], [79.70022921941644, 21.221805190528478]]]]}, "properties": {"confidence_band": "Very Low", "site_id": "bhandara", "cell_count": 489}}]}