{"type": "FeatureCollection", "site_id": "nagpur", "site_name": "Nagpur", "provenance": {"status": "TRAINED_MODEL_SCORES", "warning": "Scores derived from models trained with per-site spatial cross-validation. Deposit ground truth labels are synthetic by construction \u2014 real GSI/MOIL borehole data is needed for true geophysical exploration validation.", "generated_utc": "2026-09-23T15:42:13.552293+00:00"}, "features": [{"type": "Feature", "geometry": {"type": "MultiPolygon", "coordinates": [[[[79.21666257225955, 21.363479706154685], [79.21662976560134, 21.36618896431855], [79.21659695377075, 21.368898221560663], [79.2165641367673, 21.37160747788093], [79.2165313145906, 21.37431673327923], [79.21649848724019, 21.377025987755488], [79.21646565471566, 21.379735241309593], [79.21643281701661, 21.38244449394145], [79.21639997414255, 21.385153745650967], [79.21832842295879, 21.385174237552985], [79.21832842289167, 21.385174243095474], [79.21829561037922, 21.38788349118514], [79.21636712609309, 21.38786299643804], [79.21633701073574, 21.390346467302933], [79.21630689122595, 21.39282995381824], [79.21919971598031, 21.392860703771333], [79.21922705291176, 21.390602992695253], [79.21922705327137, 21.390602992699076], [79.21922705333849, 21.390602987155045], [79.221155576412, 21.390623462603525], [79.22118834094832, 21.387914205629883], [79.22408107674646, 21.38794486469021], [79.22697381769808, 21.38797547390899], [79.22700647066095, 21.385266207507804], [79.22989916355125, 21.38529676264242], [79.22986656379481, 21.388006033285862], [79.22983395890165, 21.39071530300747], [79.2269411595901, 21.390684739388195], [79.22690849633656, 21.393394003945318], [79.22401564894778, 21.39336338622774], [79.22112280671337, 21.39333271865479], [79.21822996964168, 21.393302001226825], [79.21819714155002, 21.39601125209215], [79.21816430828683, 21.398720502034738], [79.21813146985166, 21.401429751054504], [79.21809862624407, 21.404138999151343], [79.21806577746366, 21.406848246325158], [79.22095888077062, 21.40687898507194], [79.22092608008914, 21.409588235586863], [79.21803292350998, 21.409557492575853], [79.2180000643826, 21.41226673790334], [79.22089327424236, 21.412297485178723], [79.22086046322984, 21.415006733847417], [79.22375373154475, 21.415037435476965], [79.22372096866384, 21.417746687480157], [79.22661429543476, 21.417777343449824], [79.2295076273555, 21.417807949501466], [79.22947496593004, 21.420517209076518], [79.23236835629967, 21.420547769446927], [79.23526175180278, 21.420578279891654], [79.23522919186759, 21.42328754701139], [79.2351966268069, 21.425996813208336], [79.23230312466282, 21.425966294302686], [79.22940962765308, 21.42593572545753], [79.2294422993627, 21.42322646772857], [79.2265488608195, 21.423195853188634], [79.22365542742698, 21.42316518871684], [79.22368820062474, 21.420455938560146], [79.22079482570585, 21.420425228414935], [79.22082764705115, 21.417715981592853], [79.21793433060505, 21.417685225788272], [79.217901455954, 21.420394468345517], [79.21786857612754, 21.423103709979166], [79.22076199919353, 21.423134474313564], [79.22072916751375, 21.42584371928864], [79.21783569112525, 21.42581295068911], [79.21780280094664, 21.42852219047525], [79.21776990559135, 21.431231429337494], [79.21773700505892, 21.433940667275746], [79.21770409934891, 21.4366499042899], [79.21767118846088, 21.43935914037987], [79.21763827239445, 21.44206837554555], [79.21760535114913, 21.444777609786847], [79.21757242472454, 21.447486843103665], [79.2175394931202, 21.450196075495903], [79.21750655633569, 21.45290530696347], [79.2174736143706, 21.45561453750625], [79.21744066722448, 21.458323767124178], [79.21740771489691, 21.46103299581712], [79.21737475738745, 21.463742223585008], [79.22026898117257, 21.46377305191243], [79.22316320977215, 21.463803830201073], [79.22313583066162, 21.46606152641133], [79.22603010932669, 21.466092258213106], [79.22892439314923, 21.466122939973417], [79.23181868212086, 21.466153571691894], [79.23184592761055, 21.46389586486509], [79.23184592796825, 21.463895864868874], [79.23474017753898, 21.463926443017815], [79.23477281440172, 21.46121718975018], [79.23766701566174, 21.4612477136366], [79.23769959395877, 21.458538455219237], [79.24059374690725, 21.458568924856767], [79.24062626665535, 21.455859661296998], [79.24352037129142, 21.45589007669926], [79.24348790497, 21.4585993444706], [79.24345543354269, 21.461308611318334], [79.24056122204487, 21.461278187492777], [79.24053411372992, 21.463535905646655], [79.23763986316743, 21.463505428278573], [79.23760727547774, 21.466214685001866], [79.2405015798462, 21.466245166592618], [79.24339588933015, 21.466275598140058], [79.24629020392116, 21.466305979643824], [79.24918452361088, 21.466336311103547], [79.25207884839084, 21.46636659251886], [79.2549731782527, 21.466396823889394], [79.25786751318803, 21.466427005214786], [79.26076185318843, 21.46645713649468], [79.26365619824551, 21.466487217728698], [79.26655054835086, 21.466517248916485], [79.26944490349608, 21.466547230057678], [79.27233926367278, 21.466577161151914], [79.27523362887253, 21.466607042198838], [79.27523469198424, 21.466516730286763], [79.27793610242796, 21.466544575540595], [79.27796157664328, 21.464377122120936], [79.27815453166929, 21.464379110624645], [79.27813330599301, 21.46618532073577], [79.2810276723038, 21.466215100999968], [79.28104886234371, 21.46440888814088], [79.28104886290012, 21.464408888146604], [79.28394319857112, 21.464438615620196], [79.28397492685168, 21.461729291457022], [79.28686921406201, 21.461758964779634], [79.28690088391248, 21.45904963558699], [79.2897951226613, 21.459079254772252], [79.28982673409848, 21.456369920557457], [79.29272092438497, 21.45639948561901], [79.29275247742567, 21.453690146389377], [79.295646619249, 21.45371965734087], [79.29567811391001, 21.451010313103705], [79.29857220726934, 21.451039769958772], [79.29860364356747, 21.448330420721398], [79.30149768846199, 21.44835982349367], [79.30146630557374, 21.45106917680369], [79.30143491774884, 21.453778529193343], [79.29854076602619, 21.45374911827564], [79.29850931983756, 21.456458465671922], [79.29561511963414, 21.456429000657288], [79.295583615065, 21.459138343052864], [79.29268936638161, 21.459108823927664], [79.29265780341515, 21.46181816131523], [79.28976350625263, 21.461788588065822], [79.2897371552607, 21.46404635145907], [79.28971080118932, 21.466304141507667], [79.29260518744086, 21.466333721580742], [79.29549957865662, 21.466363251605145], [79.29839397482814, 21.466392731580516], [79.30128837594705, 21.4664221615065], [79.30418278200496, 21.466451541382742], [79.30707719299342, 21.466480871208883], [79.30997160890408, 21.466510150984575], [79.31286602972851, 21.46653938070946], [79.3128972267626, 21.46383001639144], [79.31000285939727, 21.463800790712316], [79.31000285885023, 21.463800790706784], [79.31002369032974, 21.46199455001949], [79.31291802206033, 21.462023773001516], [79.31294921091971, 21.459314407149844], [79.31298039487483, 21.456605040378108], [79.3158746246275, 21.45663420524347], [79.31590575025001, 21.453924833513458], [79.31593687097747, 21.45121546086373], [79.31596798681026, 21.448506087294362], [79.31886206119626, 21.448535190039895], [79.31889311873088, 21.44582581152005], [79.31892417138006, 21.443116432080917], [79.32181814385166, 21.443145476772845], [79.32184913822827, 21.44043609239077], [79.32188012772865, 21.43772670708974], [79.3247739983094, 21.437755693755992], [79.32766787375758, 21.43778463044355], [79.32769875163943, 21.435075236197534], [79.32772962466264, 21.432365841033043], [79.32776049282762, 21.42965644495017], [79.32779135613478, 21.42694704794902], [79.32489769412246, 21.426918127299018], [79.32200403697593, 21.426889156698017], [79.3191103847036, 21.426860136146363], [79.31907936135855, 21.42956952109922], [79.31618566062369, 21.42954044656733], [79.31615457904206, 21.432249826571393], [79.31326082984545, 21.43222069804561], [79.3132296900105, 21.43493007309357], [79.31033589235297, 21.434900890560268], [79.30744209960442, 21.43487165805696], [79.3074733461612, 21.43216229110408], [79.31036708554903, 21.432191519556394], [79.31039827383651, 21.429482147633273], [79.31329196478019, 21.429511322078564], [79.31332309481516, 21.426801945192516], [79.31621673731388, 21.426831065644418], [79.31624780911311, 21.42412168380273], [79.31914140316607, 21.424150750274883], [79.32203500210122, 21.42417976680366], [79.32492860591017, 21.424208733388706], [79.32782221458451, 21.42423765002967], [79.32785306817723, 21.421528251192242], [79.32788391691335, 21.41881885143682], [79.32791476079326, 21.416109450763496], [79.32794559981735, 21.413400049172374], [79.32797643398605, 21.41069064666355], [79.32800726329977, 21.407981243237113], [79.32803808775887, 21.405271838893157], [79.3280689073638, 21.4025624336318], [79.32809972211493, 21.399853027453112], [79.32813053201271, 21.397143620357213], [79.32816133705748, 21.39443421234418], [79.32819213724969, 21.391724803414114], [79.32822293258974, 21.38901539356712], [79.32774077961797, 21.389010582808055], [79.32777157893698, 21.386301176176648], [79.32780237344261, 21.38359176516341], [79.32783316309587, 21.380882353233503], [79.3278639478972, 21.378172940387028], [79.32789472784697, 21.37546352662407], [79.32792550294559, 21.372754111944733], [79.32795627319348, 21.370044696349122], [79.32798703859102, 21.367335279837313], [79.3280177991386, 21.36462586240943], [79.32804855483667, 21.361916444065542], [79.3280793056856, 21.359207024805762], [79.3281100516858, 21.356497604630185], [79.32813054578594, 21.354691323999024], [79.32813054632572, 21.354691324004403], [79.3281356694925, 21.35423973784251], [79.32814079283766, 21.353788183538903], [79.32814079229792, 21.353788183533524], [79.32816128424558, 21.351981902302704], [79.32551011095464, 21.35195548572591], [79.32285894216385, 21.35192903114625], [79.31996676245979, 21.351900121841286], [79.3170745876271, 21.35187116277745], [79.31418241767417, 21.351842153955108], [79.31129025260937, 21.351813095374595], [79.30839809244107, 21.351783987036264], [79.30550593717766, 21.351754828940468], [79.30547478320605, 21.354464219073794], [79.30836699103493, 21.354493381217715], [79.30834625494929, 21.356299643505302], [79.30545401116188, 21.356270478653368], [79.3025617722884, 21.356241264032796], [79.29966953833721, 21.356211999643936], [79.29970080181766, 21.353502618249983], [79.29680862591312, 21.353473308167676], [79.29680862536327, 21.353473308162094], [79.29682950090034, 21.35166705611182], [79.29393736534016, 21.35163769898969], [79.29104523472668, 21.351608292111855], [79.28815310906833, 21.351578835478684], [79.28813212731215, 21.353385079352517], [79.28523997176502, 21.353355570235305], [79.2823478206374, 21.353326011353214], [79.27945567449025, 21.35329640271223], [79.27942403920675, 21.356005755439604], [79.28231623846736, 21.356035368196558], [79.2822846513164, 21.358744724121905], [79.28517690868023, 21.358774291222257], [79.28806917101697, 21.35880380854954], [79.2880376851464, 21.361513171768582], [79.29093000557921, 21.361542643417945], [79.29382233096865, 21.361572065286605], [79.2937909464132, 21.364281435772174], [79.2937595569091, 21.36699080534004], [79.29086712523076, 21.366961375293744], [79.28797469850988, 21.36693189545291], [79.28800619431084, 21.36422253406974], [79.28511382570359, 21.364193008537452], [79.28222146207011, 21.364163433218256], [79.28225305918414, 21.361454079129167], [79.27936075367143, 21.36142445813983], [79.27939239893394, 21.35871510724883], [79.27650015154116, 21.35868544060339], [79.27360790914646, 21.358655724185947], [79.27363965566175, 21.355946380629707], [79.273671397171, 21.35323703615503], [79.27077926601561, 21.35320727823952], [79.2678871398742, 21.353177470566557], [79.26499501875517, 21.3531476131365], [79.26210290266687, 21.3531177059497], [79.25921079161766, 21.353087749006527], [79.25631868561595, 21.353057742307335], [79.2534265846701, 21.35302768585249], [79.25053448878845, 21.352997579642352], [79.2476423979794, 21.35296742367728], [79.24475031225133, 21.35293721795765], [79.24185823161257, 21.352906962483818], [79.23896615607154, 21.352876657256143], [79.23607408563659, 21.352846302275], [79.23318202031608, 21.352815897540758], [79.2302899601184, 21.35278544305377], [79.2273979050519, 21.352754938814414], [79.22450585512499, 21.352724384823055], [79.221613810346, 21.352693781080056], [79.2192037763323, 21.352668236490963], [79.21679374717694, 21.35264266428355], [79.21676096120405, 21.355351926133487], [79.21672817006048, 21.358061187062045], [79.21669537374578, 21.360770447069147], [79.21666257225955, 21.363479706154685]], [[79.2185907375178, 21.363500175299734], [79.2185907375178, 21.363500175299738], [79.21666257225955, 21.363479706154685], [79.2185907375178, 21.363500175299734]], [[79.23187861827319, 21.461186615833878], [79.23191130343822, 21.458477365874586], [79.22901716588295, 21.4584467461682], [79.22612303347555, 21.45841607643959], [79.22615582035063, 21.45570683404155], [79.22618860206988, 21.452997590719093], [79.2290826276366, 21.45302825195547], [79.22904989933349, 21.45573749952396], [79.2319439834638, 21.45576811499108], [79.23483807273314, 21.45579868044254], [79.23480544613297, 21.45850793555839], [79.23477281440172, 21.46121718975018], [79.23187861827319, 21.461186615833878]], [[79.27236588555631, 21.4643194054679], [79.27236588555633, 21.4643194054679], [79.27233926367278, 21.466577161151914], [79.27236588555631, 21.4643194054679]], [[79.301529066414, 21.445650469263402], [79.29863507492094, 21.44562107056362], [79.29866650133019, 21.442911719485554], [79.30156043943019, 21.442941114112976], [79.30445438246561, 21.44297045875067], [79.3044230628429, 21.445679817966536], [79.30731706419922, 21.445709116672653], [79.30728579305136, 21.44841847902715], [79.30439173829275, 21.448389176262374], [79.30149768846199, 21.44835982349367], [79.301529066414, 21.445650469263402]], [[79.2955205905105, 21.464557025075504], [79.29552059051052, 21.464557025075504], [79.29549957865662, 21.466363251605145], [79.2955205905105, 21.464557025075504]], [[79.32197306697643, 21.429598545673898], [79.32194209210232, 21.432307933731217], [79.31904833313048, 21.432278905133373], [79.31907936135855, 21.42956952109922], [79.32197306697643, 21.429598545673898]], [[79.31612349256865, 21.434959205656504], [79.31609240120302, 21.43766858382256], [79.31319854527496, 21.437639447222324], [79.3132296900105, 21.43493007309357], [79.31612349256865, 21.434959205656504]], [[79.32551500594995, 21.372730071276212], [79.32551500594995, 21.37273007127621], [79.32792550294559, 21.372754111944733], [79.32551500594995, 21.372730071276212]], [[79.32557663020542, 21.367311245847553], [79.32557663020542, 21.36731124584755], [79.32798703859102, 21.367335279837313], [79.32557663020542, 21.367311245847553]], [[79.32569982043655, 21.356473583996515], [79.32569982043655, 21.35647358399651], [79.3281100516858, 21.356497604630185], [79.32569982043655, 21.356473583996515]], [[79.27249362407589, 21.45348216929098], [79.27538773098705, 21.453512030349454], [79.27828184291086, 21.453541841393722], [79.27825002274722, 21.456251160085564], [79.27535585740007, 21.45622134491296], [79.27246169706599, 21.45619147971923], [79.27249362407589, 21.45348216929098]], [[79.26963149758873, 21.45074295101053], [79.26673745414173, 21.45071299407368], [79.26676947792096, 21.44800369009239], [79.26966346796266, 21.448033642880425], [79.27255746303297, 21.448063545668827], [79.27252554606474, 21.450772857940812], [79.26963149758873, 21.45074295101053]], [[79.2726212819092, 21.442644918359782], [79.27551517521266, 21.442674762878706], [79.27548332167376, 21.445384081128704], [79.27258937498098, 21.44535423247512], [79.2726212819092, 21.442644918359782]], [[79.27271697257933, 21.434516970484985], [79.27274885943257, 21.431807652684107], [79.27564253926263, 21.43183748066585], [79.27561070576515, 21.434546802600796], [79.27557886725792, 21.437256123614652], [79.27268508070796, 21.437226287364616], [79.27271697257933, 21.434516970484985]], [[79.2698871198027, 21.429068460162743], [79.26985518462021, 21.431777774743914], [79.26982324441163, 21.434487088403785], [79.26979129917653, 21.437196401142277], [79.26689752267202, 21.43716646494799], [79.26400375120285, 21.437136478782122], [79.26403580316416, 21.43442717434669], [79.26406785008216, 21.431717868989573], [79.26696151483394, 21.43174784684561], [79.26699350336297, 21.429038536412218], [79.26702548685792, 21.42632922505748], [79.26705746531923, 21.423619912781497], [79.26416396058059, 21.423589947389097], [79.26419598732961, 21.420880638346215], [79.26422800903744, 21.41817132838214], [79.26426002570447, 21.415462017496953], [79.26136668594384, 21.415432014651007], [79.25847335123196, 21.415401961889568], [79.25558002157722, 21.415371859213014], [79.25561219308868, 21.412662559909755], [79.25271892179356, 21.41263241149992], [79.25275114152564, 21.409923115456657], [79.25564435953507, 21.40995325968515], [79.25567652091675, 21.407243958539286], [79.2557086772342, 21.404534656472254], [79.252815565771, 21.404504520605986], [79.24992245938003, 21.404474334853], [79.24702935806967, 21.404444099213656], [79.24706166910363, 21.40173480878899], [79.2499547171543, 21.401765040233606], [79.24998696984838, 21.399055744692948], [79.2500192174627, 21.396346448231125], [79.25291216409843, 21.396376621421137], [79.25294435339845, 21.393667319850884], [79.25297653762792, 21.390958017359804], [79.25586938287222, 21.390988132323113], [79.25590150881294, 21.388278824731163], [79.25593362969235, 21.385569516218727], [79.25596574551086, 21.38286020678591], [79.2588584361849, 21.382890259377508], [79.26175113191101, 21.38292026213701], [79.26464383268082, 21.38295021506406], [79.26461187647044, 21.385659536994915], [79.26750463547914, 21.385689444241315], [79.26747272744493, 21.38839876940455], [79.26744081438294, 21.391108093647894], [79.26740889629272, 21.393817416971256], [79.2673769731739, 21.396526739374533], [79.26448400126718, 21.396496815517956], [79.26445201987384, 21.399206132848136], [79.26442003344268, 21.4019154492579], [79.26438804197323, 21.404624764747137], [79.26728117364148, 21.40465470106291], [79.2673131118487, 21.401945381420457], [79.26734504502602, 21.399236060857632], [79.27023807520764, 21.399265938992446], [79.27026995010965, 21.396556613363344], [79.27316293206604, 21.396586437484025], [79.27605591903473, 21.39661621173622], [79.27602415062573, 21.39932554563655], [79.27313111041035, 21.3992957672522], [79.27309928374194, 21.402005096100392], [79.27306745206043, 21.404714424028505], [79.2759605987944, 21.40474421067761], [79.2788537505335, 21.40477394743711], [79.27882202038262, 21.40748328270333], [79.28171523039117, 21.407512973691617], [79.28460844538851, 21.407542614782663], [79.28457681680302, 21.4102519573598], [79.28747009006267, 21.410281552658304], [79.28743850978667, 21.41299089842087], [79.29033184130947, 21.413020447912782], [79.29322517779669, 21.413049947492542], [79.29319369914647, 21.415759300525337], [79.29316221553978, 21.418468652638595], [79.29026877244513, 21.418439144875663], [79.29023723056524, 21.421148491977476], [79.29020568371968, 21.423857838159424], [79.290174131908, 21.4265671834214], [79.29014257512982, 21.429276527763307], [79.2901110133847, 21.431985871185052], [79.29007944667224, 21.43469521368654], [79.29004787499201, 21.437404555267666], [79.28715406347528, 21.437374968884548], [79.28712243345227, 21.440084305445467], [79.28709079845227, 21.442793641085693], [79.28705915847488, 21.445502975805116], [79.2841651917869, 21.445473327127427], [79.28419688515528, 21.44276399651497], [79.28422857353787, 21.44005466498157], [79.28426025693511, 21.437345332527325], [79.28429193534737, 21.434635999152338], [79.28432360877508, 21.4319266648567], [79.28435527721868, 21.429217329640508], [79.28438694067856, 21.42650799350386], [79.28441859915513, 21.423798656446852], [79.28445025264881, 21.421089318469576], [79.28155677116013, 21.421059656817143], [79.281525064343, 21.423768990681694], [79.28149335253458, 21.426478323625837], [79.28146163573449, 21.429187655649464], [79.28142991394228, 21.431896986752502], [79.28139818715756, 21.434606316934836], [79.2813664553799, 21.437315646196367], [79.28133471860887, 21.440024974537014], [79.27844086867366, 21.439995234112136], [79.27847265881805, 21.43728590989202], [79.27850444396068, 21.434576584750868], [79.278536224102, 21.431867258688765], [79.27856799924241, 21.429157931705813], [79.27567436775082, 21.429128157809902], [79.27570619123011, 21.426418834033058], [79.27573800970093, 21.423709509335417], [79.27284448988779, 21.423679693755023], [79.27281261808638, 21.426389014319025], [79.27278074126812, 21.42909833396209], [79.2698871198027, 21.429068460162743]], [[79.26467578385589, 21.380240892213365], [79.26756843646588, 21.38027079115557], [79.26753653848598, 21.38298011815829], [79.26464383268082, 21.38295021506406], [79.26467578385589, 21.380240892213365]], [[79.2846400689936, 21.404833271285842], [79.28753323569781, 21.40486285837436], [79.29042640737362, 21.40489239557184], [79.290394890316, 21.40760174727158], [79.28750166536625, 21.407572205976102], [79.28460844538851, 21.407542614782663], [79.2846400689936, 21.404833271285842]], [[79.28174690726937, 21.40480363430664], [79.28177857915918, 21.402094294001927], [79.2846716876187, 21.402123926869436], [79.2846400689936, 21.404833271285842], [79.28174690726937, 21.40480363430664]], [[79.27888547568763, 21.402064611251006], [79.27891719584544, 21.39935527414513], [79.27894891100732, 21.396645936119562], [79.27898062117367, 21.3939365971744], [79.27608768243984, 21.39390687691615], [79.27611944084147, 21.391197541176446], [79.27901232634494, 21.391227257309748], [79.2819052168431, 21.391256923587687], [79.2818735649026, 21.393966267570363], [79.28184190797539, 21.39667561063369], [79.28181024606107, 21.39938495277758], [79.28177857915918, 21.402094294001927], [79.27888547568763, 21.402064611251006]], [[79.27322656034106, 21.391167775188126], [79.27325836696117, 21.3884584426606], [79.27615119424004, 21.388488204517202], [79.27611944084147, 21.391197541176446], [79.27322656034106, 21.391167775188126]], [[79.29328812022938, 21.407631238668746], [79.29618135509799, 21.407660680167233], [79.29614993964262, 21.410370039123112], [79.29325665149085, 21.410340593540315], [79.29036336829475, 21.410311098051928], [79.290394890316, 21.40760174727158], [79.29328812022938, 21.407631238668746]], [[79.29904323274164, 21.41039943479996], [79.29901186563097, 21.413108796914166], [79.29898049358101, 21.41581815810922], [79.29894911659136, 21.418527518385048], [79.29891773466159, 21.421236877741524], [79.29602422834444, 21.421207465753685], [79.29605566359132, 21.418498110475177], [79.2960870938897, 21.415788754277177], [79.29611851924, 21.41307939715979], [79.29614993964262, 21.410370039123112], [79.29904323274164, 21.41039943479996]], [[79.29599278814865, 21.423916820112623], [79.29596134300353, 21.426626173551874], [79.29592989290867, 21.429335526071355], [79.29589843786368, 21.432044877670965], [79.29586697786813, 21.43475422835061], [79.2929732097905, 21.434724746002523], [79.29300472314472, 21.432015399408495], [79.29303623153997, 21.429306051894354], [79.2930677349767, 21.426596703460206], [79.29309923345531, 21.42388735410612], [79.29313072697619, 21.421178003832225], [79.29602422834444, 21.421207465753685], [79.29599278814865, 21.423916820112623]], [[79.27049293386854, 21.37759130820423], [79.26760032941922, 21.377561463233253], [79.26763221734647, 21.37485213439144], [79.27052476861695, 21.374881975217605], [79.27341732490476, 21.374911766230984], [79.2733855433356, 21.377621103355505], [79.27049293386854, 21.37759130820423]], [[79.27344910146498, 21.37220242818735], [79.27634160959046, 21.372232165256747], [79.27630988620152, 21.374941507431213], [79.27341732490476, 21.374911766230984], [79.27344910146498, 21.37220242818735]], [[79.26769597812425, 21.369433473949698], [79.26480353821115, 21.369403591614127], [79.26483546421582, 21.366694264165677], [79.26194308248884, 21.366664336190077], [79.26197505660517, 21.36395501198043], [79.25908273306344, 21.36392503837885], [79.25619041457085, 21.36389501499359], [79.25622248991738, 21.361185698201194], [79.25911475527468, 21.361215717414712], [79.25914677243718, 21.358506395531215], [79.2620389897159, 21.3585363608033], [79.26200702568072, 21.361245686851472], [79.2648993011271, 21.361275606511107], [79.26486738518767, 21.36398493579798], [79.26775971880258, 21.364014809831122], [79.26772785097565, 21.366724142349966], [79.2706202427599, 21.366753970742568], [79.27058842306222, 21.369463306486676], [79.26769597812425, 21.369433473949698]], [[79.2706838671075, 21.361335296497565], [79.27357615762473, 21.36136506682367], [79.27354440109613, 21.36407440854277], [79.27065205744154, 21.36404463407951], [79.2706838671075, 21.361335296497565]], [[79.23786240861239, 21.444992149275794], [79.23782985592443, 21.44770141231171], [79.23493592175154, 21.44767090955164], [79.23496852783174, 21.44496165074054], [79.23207465218, 21.44493110221695], [79.23210730651466, 21.44222184671387], [79.22921348938326, 21.442191252440825], [79.22924619195562, 21.43948200025248], [79.23213995571244, 21.439512590287173], [79.23503372460573, 21.439543130347733], [79.23500112878298, 21.442252391005876], [79.2378949561798, 21.442282885316462], [79.24078878869672, 21.442313329645266], [79.24368262632535, 21.44234372399192], [79.2436501855269, 21.445052996379815], [79.24075629451359, 21.445022597822344], [79.23786240861239, 21.444992149275794]], [[79.22635243334366, 21.439451360244036], [79.22638518413694, 21.436742111377143], [79.22927888938312, 21.43677274714046], [79.22924619195562, 21.43948200025248], [79.22635243334366, 21.439451360244036]], [[79.2468677265565, 21.417990537512363], [79.24683538498223, 21.420699822406498], [79.24394196902911, 21.420669511668134], [79.24397436391297, 21.417960230976547], [79.2468677265565, 21.417990537512363]], [[79.24690006303966, 21.41528125169623], [79.24979337747267, 21.415311504115973], [79.252686696988, 21.415341706621692], [79.25265446710851, 21.418051000821855], [79.24976109429115, 21.41802079412759], [79.2468677265565, 21.417990537512363], [79.24690006303966, 21.41528125169623]], [[79.25554784500022, 21.418081157594813], [79.25551566335729, 21.420790455055066], [79.25840909962622, 21.420820566081197], [79.25837696623658, 21.423529866794826], [79.25548347664797, 21.423499751593678], [79.25258999212616, 21.423469586456996], [79.2526222321547, 21.420760294100326], [79.25265446710851, 21.418051000821855], [79.25554784500022, 21.418081157594813]], [[79.25255774702242, 21.426178877891786], [79.25252549684308, 21.428888168404573], [79.2496319107336, 21.428857944954586], [79.24966421424855, 21.42614865863095], [79.2496965126795, 21.423439371385168], [79.25258999212616, 21.423469586456996], [79.25255774702242, 21.426178877891786]], [[79.24117832030241, 21.40980203954074], [79.24407151796927, 21.409832383369277], [79.24403913838262, 21.41254166682702], [79.24114588743176, 21.412511318789466], [79.24117832030241, 21.40980203954074]], [[79.24124317072432, 21.40438347827737], [79.24121074806645, 21.40709275937001], [79.23831760878141, 21.40706236985816], [79.23828512774217, 21.40977164581311], [79.23825264158793, 21.412480920845898], [79.23535940085954, 21.412450472996678], [79.23246616525493, 21.412419975242177], [79.23249875797507, 21.409710708662022], [79.23253134556343, 21.40700144115941], [79.23542447461094, 21.407031930454508], [79.235457003802, 21.404322657800055], [79.23835008470608, 21.40435309298116], [79.23838255551661, 21.401643815182194], [79.23841502121341, 21.398934536461365], [79.24130800072317, 21.398964913326754], [79.24134040806501, 21.396255629468975], [79.24137281030237, 21.39354634468967], [79.24426568844125, 21.39357666326726], [79.24429803234922, 21.39086737335857], [79.24719086235804, 21.39089763787716], [79.24722314795339, 21.388188342846398], [79.24725542846228, 21.385479046894694], [79.24728770388515, 21.382769750022174], [79.25018037935263, 21.382799952107877], [79.25021259649724, 21.380090650121083], [79.25024480856503, 21.377381347213806], [79.25027701555645, 21.37467204338613], [79.25316953654708, 21.37470218308144], [79.2532016852946, 21.371992874147306], [79.25609415818445, 21.372022959852742], [79.25606206260528, 21.374732272966128], [79.25602996196692, 21.377441585159513], [79.25599785626892, 21.38015089643281], [79.25310522384886, 21.38012079818917], [79.25307305989732, 21.382830104362576], [79.25304089087693, 21.385539409615554], [79.25014815713078, 21.38550925317409], [79.2501159298313, 21.388218553319614], [79.25008369745373, 21.39092785254436], [79.25005145999768, 21.393637150848225], [79.24715857167581, 21.393606931986902], [79.24712627590628, 21.396316225175514], [79.24709397504904, 21.399025517442908], [79.24420098533784, 21.398995240320723], [79.24416862614154, 21.401704527465313], [79.24127558827641, 21.40167419626292], [79.24124317072432, 21.40438347827737]], [[79.23847993726756, 21.3935159762545], [79.23851238762575, 21.390806694768653], [79.23854483287192, 21.38809741236134], [79.24143759946533, 21.388127772366893], [79.24140520743566, 21.390837058988943], [79.24137281030237, 21.39354634468967], [79.23847993726756, 21.3935159762545]], [[79.23844748179692, 21.396225256818767], [79.23555456064169, 21.396194834304428], [79.23558706934519, 21.393485557962105], [79.23847993726756, 21.3935159762545], [79.23844748179692, 21.396225256818767]], [[79.23269420654364, 21.393455089812868], [79.23272676335036, 21.39074581677755], [79.23275931502829, 21.388036542820455], [79.23279186157787, 21.38532726794168], [79.23282440299951, 21.382617992141316], [79.23571705295515, 21.38264844337658], [79.23568456473241, 21.385357723405214], [79.23565207139012, 21.388067002512408], [79.23561957292786, 21.390776280698066], [79.23558706934519, 21.393485557962105], [79.23269420654364, 21.393455089812868]], [[79.24146998639176, 21.38541848482361], [79.24150236821542, 21.3827091963592], [79.2443950335033, 21.382739498105824], [79.24436270487982, 21.38544879077775], [79.24433037116195, 21.3881580825287], [79.24143759946533, 21.388127772366893], [79.24146998639176, 21.38541848482361]], [[79.22671240873503, 21.40964957191895], [79.22667970945072, 21.4123588300188], [79.22378648926787, 21.412328182550663], [79.22381924183362, 21.409618928701356], [79.22671240873503, 21.40964957191895]], [[79.22674510287081, 21.40694031289635], [79.22963822164725, 21.40697090197323], [79.22960558078496, 21.409680165239305], [79.22671240873503, 21.40964957191895], [79.22674510287081, 21.40694031289635]], [[79.23256392802044, 21.404292172734426], [79.2296708573698, 21.40426163778465], [79.22970348795306, 21.401552372673656], [79.23259650534655, 21.401582903387197], [79.23256392802044, 21.404292172734426]], [[79.23584695465912, 21.3718113140497], [79.23873939702032, 21.37184169857188], [79.23870698243735, 21.37455098650601], [79.2386745627449, 21.377260273519255], [79.23864213794258, 21.379969559611503], [79.23574953605878, 21.379939162426616], [79.23578201404368, 21.377229880555426], [79.23288947046072, 21.377199437776245], [79.23292199650113, 21.37449015921172], [79.23581448691033, 21.37452059776308], [79.23584695465912, 21.3718113140497]], [[79.22414648393114, 21.38252633946414], [79.2241791797943, 21.37981707546815], [79.22707176115304, 21.379847671939874], [79.22703911847913, 21.382556940184728], [79.22414648393114, 21.38252633946414]], [[79.21913828838741, 21.358086766386215], [79.21913828839199, 21.358086766386265], [79.21913828834911, 21.35808676638581], [79.21913828830623, 21.358086766385355], [79.21913828838741, 21.358086766386215]], [[79.22625415004259, 21.447579101301343], [79.22622137863371, 21.45028834647233], [79.22332741162971, 21.45025763948077], [79.2233602364375, 21.447548398562443], [79.22625415004259, 21.447579101301343]], [[79.22329458165855, 21.452966879474722], [79.22040056641102, 21.452936118222727], [79.22043344978906, 21.450226882488504], [79.22332741162971, 21.45025763948077], [79.22329458165855, 21.452966879474722]], [[79.22934426880526, 21.431354238145765], [79.22645067026544, 21.431323610872255], [79.22648340560153, 21.42861435923446], [79.22937695080076, 21.42864498226329], [79.22934426880526, 21.431354238145765]], [[79.22358986555383, 21.428583686259923], [79.22362264907017, 21.42587443795013], [79.22651613578607, 21.42590510667322], [79.22648340560153, 21.42861435923446], [79.22358986555383, 21.428583686259923]], [[79.23513148130723, 21.431415342833446], [79.23516405662025, 21.428706078482378], [79.23805761722376, 21.4287365516719], [79.23802509525262, 21.431445820246875], [79.23513148130723, 21.431415342833446]], [[79.26181513560732, 21.37750162383363], [79.26178313628081, 21.38021094344527], [79.25889049374904, 21.380180944851627], [79.25892254626149, 21.3774716294057], [79.26181513560732, 21.37750162383363]], [[79.25612624870482, 21.36931364581946], [79.25323382897494, 21.369283564293127], [79.2503414143118, 21.369253432970005], [79.2503736060766, 21.366544126381743], [79.25326596758853, 21.366574253518994], [79.25615833416681, 21.366604330866377], [79.25612624870482, 21.36931364581946]], [[79.25211116847245, 21.463657314766493], [79.25211116847244, 21.463657314766493], [79.25213809864034, 21.461399582607644], [79.25211116847245, 21.463657314766493]], [[79.24943798285642, 21.445113643526078], [79.25233188915578, 21.44514389211413], [79.2523641697976, 21.44243460713531], [79.25525802778915, 21.442464801549697], [79.25522580053374, 21.44517409071165], [79.25811971698184, 21.44520423931827], [79.25808753805146, 21.447913531734052], [79.25805535405888, 21.450622823227373], [79.26094938236842, 21.45065293018174], [79.26091724672567, 21.453362224922223], [79.25802316500372, 21.453332113798137], [79.25512908834479, 21.453301952662006], [79.25516133081197, 21.450592666267905], [79.25226731263606, 21.45056245930368], [79.25229960343542, 21.447853176170288], [79.24940564374168, 21.447822923392028], [79.24943798285642, 21.445113643526078]], [[79.24956728845005, 21.434276514835062], [79.24667360072944, 21.434246233043833], [79.24670596776559, 21.431536952761135], [79.24959960213424, 21.431567230355988], [79.24956728845005, 21.434276514835062]], [[79.30162317065674, 21.437522401052018], [79.3045170069304, 21.4375517375593], [79.3044856971613, 21.440261098614897], [79.30159180751097, 21.44023175804248], [79.30162317065674, 21.437522401052018]], [[79.30470476210905, 21.421295551914866], [79.30467348189102, 21.42400491848737], [79.30177991237488, 21.4239756023036], [79.30181124591925, 21.421266239795365], [79.30470476210905, 21.421295551914866]], [[79.299356632278, 21.383305763126092], [79.29646387163727, 21.383276408216535], [79.29643250068877, 21.385985775440815], [79.29353969178348, 21.385956366611513], [79.29064688783015, 21.38592690793889], [79.29067836519363, 21.383217548887515], [79.29357111593968, 21.38324700347022], [79.29360253514434, 21.380537639410562], [79.2936339493979, 21.377828274432623], [79.29652659870523, 21.37785767101338], [79.2965579548255, 21.375148301034713], [79.29945055589221, 21.375177643716913], [79.29948185389598, 21.372468268744804], [79.30237440672123, 21.372497557542086], [79.30240564662526, 21.36978817758385], [79.30529815120823, 21.36981741250983], [79.30532933302926, 21.367108027572762], [79.30822178936914, 21.367137208641065], [79.30825291312394, 21.364427818732487], [79.31114532121991, 21.364456945956736], [79.31111425061621, 21.367166339912707], [79.31108317511371, 21.369875732951755], [79.31105209471198, 21.372585125073783], [79.30815952713762, 21.372555985706924], [79.30812838866005, 21.375265372864003], [79.30523577281787, 21.375236179631916], [79.3052045762477, 21.37794556181676], [79.3023119121385, 21.377916314705807], [79.302280657459, 21.3806256919111], [79.29938794508362, 21.380596390907655], [79.299356632278, 21.383305763126092]], [[79.27917077728941, 21.37768054419751], [79.28206340175942, 21.377710189887523], [79.28203177474626, 21.380419538465475], [79.27913909708738, 21.38038988865817], [79.27624642442153, 21.380360189023172], [79.27627815781202, 21.377650848686724], [79.27917077728941, 21.37768054419751]], [[79.28209502378836, 21.37500084039081], [79.28498760006168, 21.375030432149455], [79.28495603121364, 21.377739785756393], [79.28206340175942, 21.377710189887523], [79.28209502378836, 21.37500084039081]], [[79.27920245249884, 21.37497119881794], [79.27923412271608, 21.372261852519557], [79.28212664083348, 21.372291489975428], [79.28209502378836, 21.37500084039081], [79.27920245249884, 21.37497119881794]], [[79.27834546822581, 21.448123201245274], [79.27837727337794, 21.44541387978886], [79.28127123008511, 21.445443628455223], [79.28123947833154, 21.4481529540326], [79.27834546822581, 21.448123201245274]], [[79.2933510428411, 21.402212526167965], [79.29338249671511, 21.399503168538953], [79.29627557178459, 21.399532597785406], [79.29624417116855, 21.402241959498287], [79.2933510428411, 21.402212526167965]], [[79.2992313317037, 21.394143242818046], [79.2991999942201, 21.396852610445105], [79.29630696745502, 21.396823235153718], [79.29633835818024, 21.394113871603317], [79.2992313317037, 21.394143242818046]], [[79.30722323599691, 21.453837200976142], [79.30725451698407, 21.451127840461677], [79.31014863007321, 21.451157097274038], [79.31017985272942, 21.44844773178764], [79.31307391731852, 21.4484769345435], [79.31304274807381, 21.45118630407484], [79.31301157392605, 21.453895672686407], [79.31011740250555, 21.453866461840516], [79.31008617002603, 21.456575825486983], [79.31005493263422, 21.459285188213343], [79.30716065926141, 21.4592559192445], [79.30719195008949, 21.45654656057045], [79.30429773507365, 21.456517245628856], [79.30432907440854, 21.453807890093632], [79.30722323599691, 21.453837200976142]], [[79.31599909774881, 21.445796712805464], [79.31310508166058, 21.445767564092478], [79.3131362411004, 21.44305819272188], [79.31603020379352, 21.44308733739714], [79.31599909774881, 21.445796712805464]], [[79.30476730777434, 21.415876816012535], [79.3047985732224, 21.413167446682888], [79.30769193440607, 21.413196696696527], [79.31058530050385, 21.413225896795886], [79.31055414165934, 21.41593527423243], [79.31052297790869, 21.418644650750316], [79.30762950519856, 21.418615442550838], [79.30766072225957, 21.415906070083086], [79.30476730777434, 21.415876816012535]], [[79.30784792143484, 21.39964981598501], [79.30787910410274, 21.396940437087636], [79.30498606255233, 21.396911211412416], [79.30501729355143, 21.394201835652805], [79.30791028185895, 21.394231057272133], [79.31080327507775, 21.394260229025615], [79.3107721505648, 21.396969612890096], [79.31366520193015, 21.39699873881944], [79.31363412576597, 21.399708125808143], [79.3136030447065, 21.4024175118789], [79.3135719587513, 21.40512689703162], [79.31067874760461, 21.405097758975234], [79.31070988682863, 21.402388377865005], [79.30781673385486, 21.402359193964163], [79.30784792143484, 21.39964981598501]], [[79.31382050933564, 21.38345179011023], [79.3138515561365, 21.38074239761592], [79.31674429305798, 21.380771449463133], [79.31963703486353, 21.38080045147804], [79.31960609446742, 21.383509852034276], [79.31957514919519, 21.38621925167343], [79.3166823009761, 21.386190241603373], [79.31378945764189, 21.38616118168718], [79.31382050933564, 21.38345179011023]], [[79.31117638692521, 21.361747551083937], [79.31120744773253, 21.359038155294407], [79.31409975444903, 21.359067224648044], [79.31406874677647, 21.36177662447776], [79.31117638692521, 21.361747551083937]], [[79.31030469424789, 21.4376102606448], [79.31027349123342, 21.440319629809913], [79.30737959173825, 21.440290389204154], [79.30741084813025, 21.437581024090342], [79.31030469424789, 21.4376102606448]], [[79.31658927621558, 21.394318422933647], [79.31369627319941, 21.3942893509129], [79.31372733957419, 21.391579962088613], [79.31662028935465, 21.391609030074363], [79.31658927621558, 21.394318422933647]], [[79.3253300165457, 21.388986529030543], [79.32533001658516, 21.38898652556547], [79.32653539791623, 21.388998555917645], [79.3253300165457, 21.388986529030543]]], [[[79.26162306399047, 21.393757527703134], [79.26165508853764, 21.391048212691928], [79.25876223317826, 21.39101819743394], [79.25873015540323, 21.393727508278694], [79.25869807257443, 21.39643681820292], [79.2615910343979, 21.39646684179396], [79.26162306399047, 21.393757527703134]]], [[[79.25574082848779, 21.401825353484167], [79.2557086772342, 21.404534656472254], [79.25860179376122, 21.404564742451452], [79.25863389175385, 21.40185543528939], [79.25866598469145, 21.399146127206514], [79.25577297467795, 21.399116049575113], [79.25574082848779, 21.401825353484167]]], [[[79.25853758260918, 21.409983354012727], [79.25564435953507, 21.40995325968515], [79.25561219308868, 21.412662559909755], [79.25850546944893, 21.41269265841175], [79.26139875086588, 21.41272270700554], [79.26143081073958, 21.41001339843902], [79.25853758260918, 21.409983354012727]]], [[[79.26461187647044, 21.385659536994915], [79.26171912249748, 21.38562957990877], [79.26168710803984, 21.388338896760445], [79.2645799152243, 21.388368858005823], [79.26461187647044, 21.385659536994915]]], [[[79.27300377365643, 21.41013307712412], [79.2730356153654, 21.40742375103645], [79.27306745206043, 21.404714424028505], [79.27017431034, 21.404684587490152], [79.27014242037352, 21.40739391035858], [79.26724923040396, 21.40736401978489], [79.26435604546512, 21.40733407931576], [79.26438804197323, 21.404624764747137], [79.2614949153437, 21.404594778543196], [79.26146286556539, 21.407304088951538], [79.26143081073958, 21.41001339843902], [79.26432404391791, 21.41004339296367], [79.26721728213575, 21.41007333758631], [79.27011052538471, 21.41010323230658], [79.27300377365643, 21.41013307712412]]], [[[79.26718532883638, 21.412782654467062], [79.26429203733116, 21.412752705690764], [79.26426002570447, 21.415462017496953], [79.26715337050547, 21.41549197042705], [79.26718532883638, 21.412782654467062]]], [[[79.26998289519781, 21.420940510892468], [79.27001481028012, 21.41823119262711], [79.26712140714258, 21.41820128546619], [79.2670894387473, 21.420910599584367], [79.26998289519781, 21.420940510892468]]], [[[79.28737533431575, 21.418409587186723], [79.28740692453783, 21.41570024326371], [79.2845135446892, 21.415670639754634], [79.28448190116005, 21.418379979572144], [79.28737533431575, 21.418409587186723]]], [[[79.31865488608507, 21.46659769000542], [79.32154932160041, 21.466626769575786], [79.32157001270221, 21.464820518730022], [79.32157001324553, 21.46482051873548], [79.32446441745724, 21.464849545569468], [79.32444376199592, 21.46665579909393], [79.3273382072632, 21.466684778559518], [79.32735882708374, 21.464878522360966], [79.3273588276252, 21.464878522366387], [79.32736398224318, 21.464426940414565], [79.32736913699567, 21.463975394116567], [79.32736913645425, 21.463975394111145], [79.32738975411566, 21.462169137310415], [79.32742067574343, 21.459459751335014], [79.32745159250891, 21.456750364440264], [79.32748250441253, 21.454040976626278], [79.32751341145469, 21.451331587893133], [79.32754431363577, 21.448622198240937], [79.3275752109562, 21.445912807669785], [79.32760610341637, 21.443203416179774], [79.3247121211999, 21.443174471472574], [79.32468117534297, 21.445883858952556], [79.3246502246174, 21.448593245513536], [79.3217561404681, 21.44856424277973], [79.32172513146035, 21.45127362440436], [79.32169411757474, 21.45398300510965], [79.31879993146903, 21.45395394432133], [79.31876885927564, 21.45666332008272], [79.31873778219516, 21.459372694924443], [79.31584349410949, 21.459343576053662], [79.31581235869561, 21.46205294594393], [79.31578640848242, 21.464310749479164], [79.31576045545832, 21.466568560383198], [79.31865488608507, 21.46659769000542]], [[79.32157518563751, 21.46436894206328], [79.32157518565411, 21.464368940614182], [79.32157001324553, 21.46482051873548], [79.32157518563751, 21.46436894206328]]]]}, "properties": {"confidence_band": "Low", "site_id": "nagpur", "cell_count": 1224}}, {"type": "Feature", "geometry": {"type": "MultiPolygon", "coordinates": [[[[79.2241791797943, 21.37981707546815], [79.22414648393114, 21.38252633946414], [79.22703911847913, 21.382556940184728], [79.22707176115304, 21.379847671939874], [79.2241791797943, 21.37981707546815]]], [[[79.23558706934519, 21.393485557962105], [79.23561957292786, 21.390776280698066], [79.23565207139012, 21.388067002512408], [79.23568456473241, 21.385357723405214], [79.23571705295515, 21.38264844337658], [79.23282440299951, 21.382617992141316], [79.23279186157787, 21.38532726794168], [79.23275931502829, 21.388036542820455], [79.23272676335036, 21.39074581677755], [79.23269420654364, 21.393455089812868], [79.23558706934519, 21.393485557962105]]], [[[79.21639997414255, 21.385153745650967], [79.21636712609309, 21.38786299643804], [79.21925985328343, 21.387893738566778], [79.21929264812803, 21.38518448351208], [79.21639997414255, 21.385153745650967]]], [[[79.21826279256223, 21.39059274943888], [79.21822996964168, 21.393302001226825], [79.22112280671337, 21.39333271865479], [79.22401564894778, 21.39336338622774], [79.22690849633656, 21.393394003945318], [79.2269411595901, 21.390684739388195], [79.22983395890165, 21.39071530300747], [79.22986656379481, 21.388006033285862], [79.22989916355125, 21.38529676264242], [79.22700647066095, 21.385266207507804], [79.22697381769808, 21.38797547390899], [79.22408107674646, 21.38794486469021], [79.22118834094832, 21.387914205629883], [79.221155576412, 21.390623462603525], [79.21826279256223, 21.39059274943888]]], [[[79.23555456064169, 21.396194834304428], [79.23844748179692, 21.396225256818767], [79.23847993726756, 21.3935159762545], [79.23558706934519, 21.393485557962105], [79.23555456064169, 21.396194834304428]]], [[[79.23253134556343, 21.40700144115941], [79.23249875797507, 21.409710708662022], [79.23246616525493, 21.412419975242177], [79.23535940085954, 21.412450472996678], [79.23825264158793, 21.412480920845898], [79.23828512774217, 21.40977164581311], [79.23831760878141, 21.40706236985816], [79.24121074806645, 21.40709275937001], [79.24124317072432, 21.40438347827737], [79.24127558827641, 21.40167419626292], [79.24416862614154, 21.401704527465313], [79.24420098533784, 21.398995240320723], [79.24709397504904, 21.399025517442908], [79.24712627590628, 21.396316225175514], [79.24715857167581, 21.393606931986902], [79.25005145999768, 21.393637150848225], [79.25008369745373, 21.39092785254436], [79.2501159298313, 21.388218553319614], [79.25014815713078, 21.38550925317409], [79.25304089087693, 21.385539409615554], [79.25307305989732, 21.382830104362576], [79.25310522384886, 21.38012079818917], [79.25599785626892, 21.38015089643281], [79.25602996196692, 21.377441585159513], [79.25606206260528, 21.374732272966128], [79.25609415818445, 21.372022959852742], [79.2532016852946, 21.371992874147306], [79.25316953654708, 21.37470218308144], [79.25027701555645, 21.37467204338613], [79.25024480856503, 21.377381347213806], [79.25021259649724, 21.380090650121083], [79.25018037935263, 21.382799952107877], [79.24728770388515, 21.382769750022174], [79.24725542846228, 21.385479046894694], [79.24722314795339, 21.388188342846398], [79.24719086235804, 21.39089763787716], [79.24429803234922, 21.39086737335857], [79.24426568844125, 21.39357666326726], [79.24137281030237, 21.39354634468967], [79.24134040806501, 21.396255629468975], [79.24130800072317, 21.398964913326754], [79.23841502121341, 21.398934536461365], [79.23838255551661, 21.401643815182194], [79.23835008470608, 21.40435309298116], [79.235457003802, 21.404322657800055], [79.23542447461094, 21.407031930454508], [79.23253134556343, 21.40700144115941]]], [[[79.22970348795306, 21.401552372673656], [79.2296708573698, 21.40426163778465], [79.23256392802044, 21.404292172734426], [79.23259650534655, 21.401582903387197], [79.22970348795306, 21.401552372673656]]], [[[79.21803292350998, 21.409557492575853], [79.22092608008914, 21.409588235586863], [79.22095888077062, 21.40687898507194], [79.21806577746366, 21.406848246325158], [79.21803292350998, 21.409557492575853]]], [[[79.22674510287081, 21.40694031289635], [79.22671240873503, 21.40964957191895], [79.22960558078496, 21.409680165239305], [79.22963822164725, 21.40697090197323], [79.22674510287081, 21.40694031289635]]], [[[79.22378648926787, 21.412328182550663], [79.22667970945072, 21.4123588300188], [79.22671240873503, 21.40964957191895], [79.22381924183362, 21.409618928701356], [79.22378648926787, 21.412328182550663]]], [[[79.22368820062474, 21.420455938560146], [79.22365542742698, 21.42316518871684], [79.2265488608195, 21.423195853188634], [79.2294422993627, 21.42322646772857], [79.22940962765308, 21.42593572545753], [79.23230312466282, 21.425966294302686], [79.2351966268069, 21.425996813208336], [79.23522919186759, 21.42328754701139], [79.23526175180278, 21.420578279891654], [79.23236835629967, 21.420547769446927], [79.22947496593004, 21.420517209076518], [79.2295076273555, 21.417807949501466], [79.22661429543476, 21.417777343449824], [79.22372096866384, 21.417746687480157], [79.22375373154475, 21.415037435476965], [79.22086046322984, 21.415006733847417], [79.22089327424236, 21.412297485178723], [79.2180000643826, 21.41226673790334], [79.21796720008109, 21.41497598230751], [79.21793433060505, 21.417685225788272], [79.22082764705115, 21.417715981592853], [79.22079482570585, 21.420425228414935], [79.22368820062474, 21.420455938560146]]], [[[79.21786857612754, 21.423103709979166], [79.21783569112525, 21.42581295068911], [79.22072916751375, 21.42584371928864], [79.22076199919353, 21.423134474313564], [79.21786857612754, 21.423103709979166]]], [[[79.22358986555383, 21.428583686259923], [79.22648340560153, 21.42861435923446], [79.22651613578607, 21.42590510667322], [79.22362264907017, 21.42587443795013], [79.22358986555383, 21.428583686259923]]], [[[79.22648340560153, 21.42861435923446], [79.22645067026544, 21.431323610872255], [79.22934426880526, 21.431354238145765], [79.22937695080076, 21.42864498226329], [79.22648340560153, 21.42861435923446]]], [[[79.23516405662025, 21.428706078482378], [79.23513148130723, 21.431415342833446], [79.23802509525262, 21.431445820246875], [79.23805761722376, 21.4287365516719], [79.23516405662025, 21.428706078482378]]], [[[79.2233602364375, 21.447548398562443], [79.22332741162971, 21.45025763948077], [79.22622137863371, 21.45028834647233], [79.22625415004259, 21.447579101301343], [79.2233602364375, 21.447548398562443]]], [[[79.22040056641102, 21.452936118222727], [79.22329458165855, 21.452966879474722], [79.22332741162971, 21.45025763948077], [79.22043344978906, 21.450226882488504], [79.22040056641102, 21.452936118222727]]], [[[79.23187861827319, 21.461186615833878], [79.23477281440172, 21.46121718975018], [79.23480544613297, 21.45850793555839], [79.23483807273314, 21.45579868044254], [79.2319439834638, 21.45576811499108], [79.22904989933349, 21.45573749952396], [79.2290826276366, 21.45302825195547], [79.22618860206988, 21.452997590719093], [79.22615582035063, 21.45570683404155], [79.22612303347555, 21.45841607643959], [79.22901716588295, 21.4584467461682], [79.23191130343822, 21.458477365874586], [79.23187861827319, 21.461186615833878]]], [[[79.23181868212086, 21.466153571691894], [79.23471297623315, 21.466184153368168], [79.23760727547774, 21.466214685001866], [79.23763443188508, 21.4639569711262], [79.23763443224163, 21.463956971129964], [79.2405286920678, 21.463987449204936], [79.24056122204487, 21.461278187492777], [79.24345543354269, 21.461308611318334], [79.24348790497, 21.4585993444706], [79.24352037129142, 21.45589007669926], [79.24062626665535, 21.455859661296998], [79.24059374690725, 21.458568924856767], [79.23769959395877, 21.458538455219237], [79.23766701566174, 21.4612477136366], [79.23477281440172, 21.46121718975018], [79.23474561701538, 21.463474900866956], [79.23185137670936, 21.463444323427233], [79.23181868212086, 21.466153571691894]]], [[[79.25326596758853, 21.366574253518994], [79.2503736060766, 21.366544126381743], [79.2503414143118, 21.369253432970005], [79.25323382897494, 21.369283564293127], [79.25612624870482, 21.36931364581946], [79.25615833416681, 21.366604330866377], [79.25326596758853, 21.366574253518994]]], [[[79.24436270487982, 21.38544879077775], [79.2443950335033, 21.382739498105824], [79.24150236821542, 21.3827091963592], [79.24146998639176, 21.38541848482361], [79.24143759946533, 21.388127772366893], [79.24433037116195, 21.3881580825287], [79.24436270487982, 21.38544879077775]]], [[[79.25586938287222, 21.390988132323113], [79.25297653762792, 21.390958017359804], [79.25294435339845, 21.393667319850884], [79.25291216409843, 21.396376621421137], [79.2500192174627, 21.396346448231125], [79.24998696984838, 21.399055744692948], [79.2499547171543, 21.401765040233606], [79.24706166910363, 21.40173480878899], [79.24702935806967, 21.404444099213656], [79.24992245938003, 21.404474334853], [79.252815565771, 21.404504520605986], [79.2557086772342, 21.404534656472254], [79.25567652091675, 21.407243958539286], [79.25564435953507, 21.40995325968515], [79.25853758260918, 21.409983354012727], [79.26143081073958, 21.41001339843902], [79.26146286556539, 21.407304088951538], [79.2614949153437, 21.404594778543196], [79.26438804197323, 21.404624764747137], [79.26442003344268, 21.4019154492579], [79.26445201987384, 21.399206132848136], [79.26448400126718, 21.396496815517956], [79.2673769731739, 21.396526739374533], [79.26740889629272, 21.393817416971256], [79.26744081438294, 21.391108093647894], [79.26747272744493, 21.38839876940455], [79.26750463547914, 21.385689444241315], [79.26461187647044, 21.385659536994915], [79.26464383268082, 21.38295021506406], [79.26175113191101, 21.38292026213701], [79.2588584361849, 21.382890259377508], [79.25596574551086, 21.38286020678591], [79.25593362969235, 21.385569516218727], [79.25590150881294, 21.388278824731163], [79.25586938287222, 21.390988132323113]], [[79.25574082848779, 21.401825353484167], [79.25577297467795, 21.399116049575113], [79.25866598469145, 21.399146127206514], [79.25863389175385, 21.40185543528939], [79.25860179376122, 21.404564742451452], [79.2557086772342, 21.404534656472254], [79.25574082848779, 21.401825353484167]], [[79.2645799152243, 21.388368858005823], [79.26168710803984, 21.388338896760445], [79.26171912249748, 21.38562957990877], [79.26461187647044, 21.385659536994915], [79.2645799152243, 21.388368858005823]], [[79.26165508853764, 21.391048212691928], [79.26162306399047, 21.393757527703134], [79.2615910343979, 21.39646684179396], [79.25869807257443, 21.39643681820292], [79.25873015540323, 21.393727508278694], [79.25876223317826, 21.39101819743394], [79.26165508853764, 21.391048212691928]]], [[[79.24140520743566, 21.390837058988943], [79.24143759946533, 21.388127772366893], [79.23854483287192, 21.38809741236134], [79.23851238762575, 21.390806694768653], [79.23847993726756, 21.3935159762545], [79.24137281030237, 21.39354634468967], [79.24140520743566, 21.390837058988943]]], [[[79.24117832030241, 21.40980203954074], [79.24114588743176, 21.412511318789466], [79.24403913838262, 21.41254166682702], [79.24407151796927, 21.409832383369277], [79.24117832030241, 21.40980203954074]]], [[[79.25271892179356, 21.41263241149992], [79.25561219308868, 21.412662559909755], [79.25564435953507, 21.40995325968515], [79.25275114152564, 21.409923115456657], [79.25271892179356, 21.41263241149992]]], [[[79.26422800903744, 21.41817132838214], [79.26419598732961, 21.420880638346215], [79.26416396058059, 21.423589947389097], [79.26705746531923, 21.423619912781497], [79.26702548685792, 21.42632922505748], [79.26699350336297, 21.429038536412218], [79.26696151483394, 21.43174784684561], [79.26406785008216, 21.431717868989573], [79.26403580316416, 21.43442717434669], [79.26400375120285, 21.437136478782122], [79.26689752267202, 21.43716646494799], [79.26979129917653, 21.437196401142277], [79.26982324441163, 21.434487088403785], [79.26985518462021, 21.431777774743914], [79.2698871198027, 21.429068460162743], [79.27278074126812, 21.42909833396209], [79.27281261808638, 21.426389014319025], [79.27284448988779, 21.423679693755023], [79.27573800970093, 21.423709509335417], [79.27570619123011, 21.426418834033058], [79.27567436775082, 21.429128157809902], [79.27856799924241, 21.429157931705813], [79.278536224102, 21.431867258688765], [79.27850444396068, 21.434576584750868], [79.27847265881805, 21.43728590989202], [79.27844086867366, 21.439995234112136], [79.28133471860887, 21.440024974537014], [79.2813664553799, 21.437315646196367], [79.28139818715756, 21.434606316934836], [79.28142991394228, 21.431896986752502], [79.28146163573449, 21.429187655649464], [79.28149335253458, 21.426478323625837], [79.281525064343, 21.423768990681694], [79.28155677116013, 21.421059656817143], [79.28445025264881, 21.421089318469576], [79.28441859915513, 21.423798656446852], [79.28438694067856, 21.42650799350386], [79.28435527721868, 21.429217329640508], [79.28432360877508, 21.4319266648567], [79.28429193534737, 21.434635999152338], [79.28426025693511, 21.437345332527325], [79.28422857353787, 21.44005466498157], [79.28419688515528, 21.44276399651497], [79.2841651917869, 21.445473327127427], [79.28705915847488, 21.445502975805116], [79.28709079845227, 21.442793641085693], [79.28712243345227, 21.440084305445467], [79.28715406347528, 21.437374968884548], [79.29004787499201, 21.437404555267666], [79.29007944667224, 21.43469521368654], [79.2901110133847, 21.431985871185052], [79.29014257512982, 21.429276527763307], [79.290174131908, 21.4265671834214], [79.29020568371968, 21.423857838159424], [79.29023723056524, 21.421148491977476], [79.29026877244513, 21.418439144875663], [79.29316221553978, 21.418468652638595], [79.29319369914647, 21.415759300525337], [79.29322517779669, 21.413049947492542], [79.29033184130947, 21.413020447912782], [79.28743850978667, 21.41299089842087], [79.28747009006267, 21.410281552658304], [79.28457681680302, 21.4102519573598], [79.28460844538851, 21.407542614782663], [79.28171523039117, 21.407512973691617], [79.27882202038262, 21.40748328270333], [79.2788537505335, 21.40477394743711], [79.2759605987944, 21.40474421067761], [79.27306745206043, 21.404714424028505], [79.2730356153654, 21.40742375103645], [79.27300377365643, 21.41013307712412], [79.27011052538471, 21.41010323230658], [79.26721728213575, 21.41007333758631], [79.26432404391791, 21.41004339296367], [79.26143081073958, 21.41001339843902], [79.26139875086588, 21.41272270700554], [79.25850546944893, 21.41269265841175], [79.25561219308868, 21.412662559909755], [79.25558002157722, 21.415371859213014], [79.25847335123196, 21.415401961889568], [79.26136668594384, 21.415432014651007], [79.26426002570447, 21.415462017496953], [79.26422800903744, 21.41817132838214]], [[79.26429203733116, 21.412752705690764], [79.26718532883638, 21.412782654467062], [79.26715337050547, 21.41549197042705], [79.26426002570447, 21.415462017496953], [79.26429203733116, 21.412752705690764]], [[79.27001481028012, 21.41823119262711], [79.26998289519781, 21.420940510892468], [79.2670894387473, 21.420910599584367], [79.26712140714258, 21.41820128546619], [79.27001481028012, 21.41823119262711]], [[79.28740692453783, 21.41570024326371], [79.28737533431575, 21.418409587186723], [79.28448190116005, 21.418379979572144], [79.2845135446892, 21.415670639754634], [79.28740692453783, 21.41570024326371]]], [[[79.27065205744154, 21.36404463407951], [79.27354440109613, 21.36407440854277], [79.27357615762473, 21.36136506682367], [79.2706838671075, 21.361335296497565], [79.27065205744154, 21.36404463407951]]], [[[79.25889049374904, 21.380180944851627], [79.26178313628081, 21.38021094344527], [79.26181513560732, 21.37750162383363], [79.25892254626149, 21.3774716294057], [79.25889049374904, 21.380180944851627]]], [[[79.26467578385589, 21.380240892213365], [79.26464383268082, 21.38295021506406], [79.26753653848598, 21.38298011815829], [79.26756843646588, 21.38027079115557], [79.26467578385589, 21.380240892213365]]], [[[79.26438804197323, 21.404624764747137], [79.26435604546512, 21.40733407931576], [79.26724923040396, 21.40736401978489], [79.27014242037352, 21.40739391035858], [79.27017431034, 21.404684587490152], [79.27306745206043, 21.404714424028505], [79.27309928374194, 21.402005096100392], [79.27313111041035, 21.3992957672522], [79.27602415062573, 21.39932554563655], [79.27605591903473, 21.39661621173622], [79.27316293206604, 21.396586437484025], [79.27026995010965, 21.396556613363344], [79.27023807520764, 21.399265938992446], [79.26734504502602, 21.399236060857632], [79.2673131118487, 21.401945381420457], [79.26728117364148, 21.40465470106291], [79.26438804197323, 21.404624764747137]]], [[[79.27271697257933, 21.434516970484985], [79.27268508070796, 21.437226287364616], [79.27557886725792, 21.437256123614652], [79.27561070576515, 21.434546802600796], [79.27564253926263, 21.43183748066585], [79.27274885943257, 21.431807652684107], [79.27271697257933, 21.434516970484985]]], [[[79.2857114907356, 21.35426360906098], [79.28619352001459, 21.354268533013908], [79.28619352007895, 21.35426852747985], [79.28812163643573, 21.354288201144968], [79.28815310906833, 21.351578835478684], [79.28574300747484, 21.35155424681152], [79.28333291067183, 21.351529630523583], [79.2833013495249, 21.354238989349284], [79.28522946269652, 21.354258685120712], [79.28522946263213, 21.354258690654756], [79.2857114907356, 21.35426360906098]]], [[[79.27650015154116, 21.35868544060339], [79.27939239893394, 21.35871510724883], [79.27936075367143, 21.36142445813983], [79.28225305918414, 21.361454079129167], [79.28222146207011, 21.364163433218256], [79.28511382570359, 21.364193008537452], [79.28800619431084, 21.36422253406974], [79.28797469850988, 21.36693189545291], [79.29086712523076, 21.366961375293744], [79.2937595569091, 21.36699080534004], [79.2937909464132, 21.364281435772174], [79.29382233096865, 21.361572065286605], [79.29093000557921, 21.361542643417945], [79.2880376851464, 21.361513171768582], [79.28806917101697, 21.35880380854954], [79.28517690868023, 21.358774291222257], [79.2822846513164, 21.358744724121905], [79.28231623846736, 21.356035368196558], [79.27942403920675, 21.356005755439604], [79.27945567449025, 21.35329640271223], [79.276563533332, 21.353266744312723], [79.273671397171, 21.35323703615503], [79.27363965566175, 21.355946380629707], [79.27360790914646, 21.358655724185947], [79.27650015154116, 21.35868544060339]]], [[[79.27325836696117, 21.3884584426606], [79.27322656034106, 21.391167775188126], [79.27611944084147, 21.391197541176446], [79.27615119424004, 21.388488204517202], [79.27325836696117, 21.3884584426606]]], [[[79.28184190797539, 21.39667561063369], [79.2818735649026, 21.393966267570363], [79.2819052168431, 21.391256923587687], [79.27901232634494, 21.391227257309748], [79.27611944084147, 21.391197541176446], [79.27608768243984, 21.39390687691615], [79.27898062117367, 21.3939365971744], [79.27894891100732, 21.396645936119562], [79.27891719584544, 21.39935527414513], [79.27888547568763, 21.402064611251006], [79.28177857915918, 21.402094294001927], [79.28181024606107, 21.39938495277758], [79.28184190797539, 21.39667561063369]]], [[[79.28174690726937, 21.40480363430664], [79.2846400689936, 21.404833271285842], [79.2846716876187, 21.402123926869436], [79.28177857915918, 21.402094294001927], [79.28174690726937, 21.40480363430664]]], [[[79.27837727337794, 21.44541387978886], [79.27834546822581, 21.448123201245274], [79.28123947833154, 21.4481529540326], [79.28127123008511, 21.445443628455223], [79.27837727337794, 21.44541387978886]]], [[[79.28395377466352, 21.463535507662506], [79.28105945736536, 21.463505781566287], [79.2810276723038, 21.466215100999968], [79.28392204361238, 21.466244831216923], [79.28681641991035, 21.466274511386278], [79.28971080118932, 21.466304141507667], [79.28973188431846, 21.4644979204324], [79.28973188487207, 21.464497920438067], [79.2897371552607, 21.46404635145907], [79.28974242588471, 21.46359480974969], [79.28974242533113, 21.463594809744023], [79.28976350625263, 21.461788588065822], [79.29265780341515, 21.46181816131523], [79.29268936638161, 21.459108823927664], [79.295583615065, 21.459138343052864], [79.29561511963414, 21.456429000657288], [79.29850931983756, 21.456458465671922], [79.29854076602619, 21.45374911827564], [79.30143491774884, 21.453778529193343], [79.30146630557374, 21.45106917680369], [79.30149768846199, 21.44835982349367], [79.29860364356747, 21.448330420721398], [79.29857220726934, 21.451039769958772], [79.29567811391001, 21.451010313103705], [79.295646619249, 21.45371965734087], [79.29275247742567, 21.453690146389377], [79.29272092438497, 21.45639948561901], [79.28982673409848, 21.456369920557457], [79.2897951226613, 21.459079254772252], [79.28690088391248, 21.45904963558699], [79.28686921406201, 21.461758964779634], [79.28397492685168, 21.461729291457022], [79.28395377466352, 21.463535507662506]]], [[[79.29067836519363, 21.383217548887515], [79.29064688783015, 21.38592690793889], [79.29353969178348, 21.385956366611513], [79.29643250068877, 21.385985775440815], [79.29646387163727, 21.383276408216535], [79.299356632278, 21.383305763126092], [79.29938794508362, 21.380596390907655], [79.302280657459, 21.3806256919111], [79.3023119121385, 21.377916314705807], [79.3052045762477, 21.37794556181676], [79.30523577281787, 21.375236179631916], [79.30812838866005, 21.375265372864003], [79.30815952713762, 21.372555985706924], [79.31105209471198, 21.372585125073783], [79.31108317511371, 21.369875732951755], [79.31111425061621, 21.367166339912707], [79.31114532121991, 21.364456945956736], [79.30825291312394, 21.364427818732487], [79.30822178936914, 21.367137208641065], [79.30532933302926, 21.367108027572762], [79.30529815120823, 21.36981741250983], [79.30240564662526, 21.36978817758385], [79.30237440672123, 21.372497557542086], [79.29948185389598, 21.372468268744804], [79.29945055589221, 21.375177643716913], [79.2965579548255, 21.375148301034713], [79.29652659870523, 21.37785767101338], [79.2936339493979, 21.377828274432623], [79.29360253514434, 21.380537639410562], [79.29357111593968, 21.38324700347022], [79.29067836519363, 21.383217548887515]]], [[[79.28750166536625, 21.407572205976102], [79.290394890316, 21.40760174727158], [79.29042640737362, 21.40489239557184], [79.28753323569781, 21.40486285837436], [79.2846400689936, 21.404833271285842], [79.28460844538851, 21.407542614782663], [79.28750166536625, 21.407572205976102]]], [[[79.29325665149085, 21.410340593540315], [79.29614993964262, 21.410370039123112], [79.29618135509799, 21.407660680167233], [79.29328812022938, 21.407631238668746], [79.290394890316, 21.40760174727158], [79.29036336829475, 21.410311098051928], [79.29325665149085, 21.410340593540315]]], [[[79.29904323274164, 21.41039943479996], [79.29614993964262, 21.410370039123112], [79.29611851924, 21.41307939715979], [79.2960870938897, 21.415788754277177], [79.29605566359132, 21.418498110475177], [79.29602422834444, 21.421207465753685], [79.29891773466159, 21.421236877741524], [79.29894911659136, 21.418527518385048], [79.29898049358101, 21.41581815810922], [79.29901186563097, 21.413108796914166], [79.29904323274164, 21.41039943479996]]], [[[79.2929732097905, 21.434724746002523], [79.29586697786813, 21.43475422835061], [79.29589843786368, 21.432044877670965], [79.29592989290867, 21.429335526071355], [79.29596134300353, 21.426626173551874], [79.29599278814865, 21.423916820112623], [79.29602422834444, 21.421207465753685], [79.29313072697619, 21.421178003832225], [79.29309923345531, 21.42388735410612], [79.2930677349767, 21.426596703460206], [79.29303623153997, 21.429306051894354], [79.29300472314472, 21.432015399408495], [79.2929732097905, 21.434724746002523]]], [[[79.31120744773253, 21.359038155294407], [79.31117638692521, 21.361747551083937], [79.31406874677647, 21.36177662447776], [79.31409975444903, 21.359067224648044], [79.31120744773253, 21.359038155294407]]], [[[79.31369627319941, 21.3942893509129], [79.31658927621558, 21.394318422933647], [79.31662028935465, 21.391609030074363], [79.31372733957419, 21.391579962088613], [79.31369627319941, 21.3942893509129]]], [[[79.31070988682863, 21.402388377865005], [79.31067874760461, 21.405097758975234], [79.3135719587513, 21.40512689703162], [79.3136030447065, 21.4024175118789], [79.31363412576597, 21.399708125808143], [79.31366520193015, 21.39699873881944], [79.3107721505648, 21.396969612890096], [79.31080327507775, 21.394260229025615], [79.30791028185895, 21.394231057272133], [79.30501729355143, 21.394201835652805], [79.30498606255233, 21.396911211412416], [79.30787910410274, 21.396940437087636], [79.30784792143484, 21.39964981598501], [79.30781673385486, 21.402359193964163], [79.31070988682863, 21.402388377865005]]], [[[79.31596798681026, 21.448506087294362], [79.31593687097747, 21.45121546086373], [79.31590575025001, 21.453924833513458], [79.3158746246275, 21.45663420524347], [79.31298039487483, 21.456605040378108], [79.31294921091971, 21.459314407149844], [79.31291802206033, 21.462023773001516], [79.31002369032974, 21.46199455001949], [79.30999244311215, 21.46470391090534], [79.31288682775012, 21.464733137927517], [79.31286602972851, 21.46653938070946], [79.31576045545832, 21.466568560383198], [79.31578121784025, 21.464762314908693], [79.31578121838544, 21.46476231491419], [79.31578640848242, 21.464310749479164], [79.31579159903289, 21.463859192026334], [79.31579159848772, 21.463859192020838], [79.31581235869561, 21.46205294594393], [79.31584349410949, 21.459343576053662], [79.31873778219516, 21.459372694924443], [79.31876885927564, 21.45666332008272], [79.31879993146903, 21.45395394432133], [79.32169411757474, 21.45398300510965], [79.32172513146035, 21.45127362440436], [79.3217561404681, 21.44856424277973], [79.3246502246174, 21.448593245513536], [79.32468117534297, 21.445883858952556], [79.3247121211999, 21.443174471472574], [79.32760610341637, 21.443203416179774], [79.3276369910167, 21.440494023771002], [79.32766787375758, 21.43778463044355], [79.3247739983094, 21.437755693755992], [79.32188012772865, 21.43772670708974], [79.32184913822827, 21.44043609239077], [79.32181814385166, 21.443145476772845], [79.31892417138006, 21.443116432080917], [79.31889311873088, 21.44582581152005], [79.31886206119626, 21.448535190039895], [79.31596798681026, 21.448506087294362]]], [[[79.301529066414, 21.445650469263402], [79.30149768846199, 21.44835982349367], [79.30439173829275, 21.448389176262374], [79.30728579305136, 21.44841847902715], [79.30731706419922, 21.445709116672653], [79.3044230628429, 21.445679817966536], [79.30445438246561, 21.44297045875067], [79.30156043943019, 21.442941114112976], [79.29866650133019, 21.442911719485554], [79.29863507492094, 21.44562107056362], [79.301529066414, 21.445650469263402]]], [[[79.3131362411004, 21.44305819272188], [79.31310508166058, 21.445767564092478], [79.31599909774881, 21.445796712805464], [79.31603020379352, 21.44308733739714], [79.3131362411004, 21.44305819272188]]], [[[79.30429773507365, 21.456517245628856], [79.30719195008949, 21.45654656057045], [79.30716065926141, 21.4592559192445], [79.31005493263422, 21.459285188213343], [79.31008617002603, 21.456575825486983], [79.31011740250555, 21.453866461840516], [79.31301157392605, 21.453895672686407], [79.31304274807381, 21.45118630407484], [79.31307391731852, 21.4484769345435], [79.31017985272942, 21.44844773178764], [79.31014863007321, 21.451157097274038], [79.30725451698407, 21.451127840461677], [79.30722323599691, 21.453837200976142], [79.30432907440854, 21.453807890093632], [79.30429773507365, 21.456517245628856]]]]}, "properties": {"confidence_band": "Very Low", "site_id": "nagpur", "cell_count": 321}}, {"type": "Feature", "geometry": {"type": "MultiPolygon", "coordinates": [[[[79.23288947046072, 21.377199437776245], [79.23578201404368, 21.377229880555426], [79.23574953605878, 21.379939162426616], [79.23864213794258, 21.379969559611503], [79.2386745627449, 21.377260273519255], [79.23870698243735, 21.37455098650601], [79.23873939702032, 21.37184169857188], [79.23584695465912, 21.3718113140497], [79.23581448691033, 21.37452059776308], [79.23292199650113, 21.37449015921172], [79.23288947046072, 21.377199437776245]]], [[[79.24690006303966, 21.41528125169623], [79.2468677265565, 21.417990537512363], [79.24976109429115, 21.41802079412759], [79.25265446710851, 21.418051000821855], [79.252686696988, 21.415341706621692], [79.24979337747267, 21.415311504115973], [79.24690006303966, 21.41528125169623]]], [[[79.25265446710851, 21.418051000821855], [79.2526222321547, 21.420760294100326], [79.25258999212616, 21.423469586456996], [79.25548347664797, 21.423499751593678], [79.25837696623658, 21.423529866794826], [79.25840909962622, 21.420820566081197], [79.25551566335729, 21.420790455055066], [79.25554784500022, 21.418081157594813], [79.25265446710851, 21.418051000821855]]], [[[79.25252549684308, 21.428888168404573], [79.25255774702242, 21.426178877891786], [79.25258999212616, 21.423469586456996], [79.2496965126795, 21.423439371385168], [79.24966421424855, 21.42614865863095], [79.2496319107336, 21.428857944954586], [79.25252549684308, 21.428888168404573]]], [[[79.24956728845005, 21.434276514835062], [79.24959960213424, 21.431567230355988], [79.24670596776559, 21.431536952761135], [79.24667360072944, 21.434246233043833], [79.24956728845005, 21.434276514835062]]], [[[79.22924619195562, 21.43948200025248], [79.22927888938312, 21.43677274714046], [79.22638518413694, 21.436742111377143], [79.22635243334366, 21.439451360244036], [79.22924619195562, 21.43948200025248]]], [[[79.22921348938326, 21.442191252440825], [79.23210730651466, 21.44222184671387], [79.23207465218, 21.44493110221695], [79.23496852783174, 21.44496165074054], [79.23493592175154, 21.44767090955164], [79.23782985592443, 21.44770141231171], [79.23786240861239, 21.444992149275794], [79.24075629451359, 21.445022597822344], [79.2436501855269, 21.445052996379815], [79.24368262632535, 21.44234372399192], [79.24078878869672, 21.442313329645266], [79.2378949561798, 21.442282885316462], [79.23500112878298, 21.442252391005876], [79.23503372460573, 21.439543130347733], [79.23213995571244, 21.439512590287173], [79.22924619195562, 21.43948200025248], [79.22921348938326, 21.442191252440825]]], [[[79.2523641697976, 21.44243460713531], [79.25233188915578, 21.44514389211413], [79.24943798285642, 21.445113643526078], [79.24940564374168, 21.447822923392028], [79.25229960343542, 21.447853176170288], [79.25226731263606, 21.45056245930368], [79.25516133081197, 21.450592666267905], [79.25512908834479, 21.453301952662006], [79.25802316500372, 21.453332113798137], [79.26091724672567, 21.453362224922223], [79.26094938236842, 21.45065293018174], [79.25805535405888, 21.450622823227373], [79.25808753805146, 21.447913531734052], [79.25811971698184, 21.44520423931827], [79.25522580053374, 21.44517409071165], [79.25525802778915, 21.442464801549697], [79.2523641697976, 21.44243460713531]]], [[[79.22024155716244, 21.46603074456846], [79.22027446554343, 21.463321513304134], [79.21738025066556, 21.46329068568794], [79.21734728883753, 21.465999912684868], [79.22024155716244, 21.46603074456846]]], [[[79.29679818759641, 21.35437643404274], [79.2996903806564, 21.35440574547764], [79.29966953833721, 21.356211999643936], [79.3025617722884, 21.356241264032796], [79.30545401116188, 21.356270478653368], [79.30834625494929, 21.356299643505302], [79.30837735907942, 21.35359024992941], [79.3054851684092, 21.353561089131208], [79.30548516786214, 21.353561089125684], [79.30550593717766, 21.351754828940468], [79.30261378682746, 21.351725621087564], [79.2997216413989, 21.3516963634779], [79.29682950090034, 21.35166705611182], [79.29679818759641, 21.35437643404274]], [[79.30547997548413, 21.354012658445193], [79.30547997553516, 21.354012654006613], [79.3054851684092, 21.353561089131208], [79.30547997548413, 21.354012658445193]]], [[[79.25619041457085, 21.36389501499359], [79.25908273306344, 21.36392503837885], [79.26197505660517, 21.36395501198043], [79.26194308248884, 21.366664336190077], [79.26483546421582, 21.366694264165677], [79.26480353821115, 21.369403591614127], [79.26769597812425, 21.369433473949698], [79.27058842306222, 21.369463306486676], [79.2706202427599, 21.366753970742568], [79.26772785097565, 21.366724142349966], [79.26775971880258, 21.364014809831122], [79.26486738518767, 21.36398493579798], [79.2648993011271, 21.361275606511107], [79.26200702568072, 21.361245686851472], [79.2620389897159, 21.3585363608033], [79.25914677243718, 21.358506395531215], [79.25911475527468, 21.361215717414712], [79.25622248991738, 21.361185698201194], [79.25619041457085, 21.36389501499359]]], [[[79.27634160959046, 21.372232165256747], [79.27344910146498, 21.37220242818735], [79.27341732490476, 21.374911766230984], [79.27630988620152, 21.374941507431213], [79.27634160959046, 21.372232165256747]]], [[[79.28209502378836, 21.37500084039081], [79.28212664083348, 21.372291489975428], [79.27923412271608, 21.372261852519557], [79.27920245249884, 21.37497119881794], [79.28209502378836, 21.37500084039081]]], [[[79.26763221734647, 21.37485213439144], [79.26760032941922, 21.377561463233253], [79.27049293386854, 21.37759130820423], [79.2733855433356, 21.377621103355505], [79.27341732490476, 21.374911766230984], [79.27052476861695, 21.374881975217605], [79.26763221734647, 21.37485213439144]]], [[[79.28498760006168, 21.375030432149455], [79.28209502378836, 21.37500084039081], [79.28206340175942, 21.377710189887523], [79.28495603121364, 21.377739785756393], [79.28498760006168, 21.375030432149455]]], [[[79.28203177474626, 21.380419538465475], [79.28206340175942, 21.377710189887523], [79.27917077728941, 21.37768054419751], [79.27627815781202, 21.377650848686724], [79.27624642442153, 21.380360189023172], [79.27913909708738, 21.38038988865817], [79.28203177474626, 21.380419538465475]]], [[[79.2991999942201, 21.396852610445105], [79.2992313317037, 21.394143242818046], [79.29633835818024, 21.394113871603317], [79.29630696745502, 21.396823235153718], [79.2991999942201, 21.396852610445105]]], [[[79.29624417116855, 21.402241959498287], [79.29627557178459, 21.399532597785406], [79.29338249671511, 21.399503168538953], [79.2933510428411, 21.402212526167965], [79.29624417116855, 21.402241959498287]]], [[[79.27551517521266, 21.442674762878706], [79.2726212819092, 21.442644918359782], [79.27258937498098, 21.44535423247512], [79.27548332167376, 21.445384081128704], [79.27551517521266, 21.442674762878706]]], [[[79.26676947792096, 21.44800369009239], [79.26673745414173, 21.45071299407368], [79.26963149758873, 21.45074295101053], [79.27252554606474, 21.450772857940812], [79.27255746303297, 21.448063545668827], [79.26966346796266, 21.448033642880425], [79.26676947792096, 21.44800369009239]]], [[[79.27246169706599, 21.45619147971923], [79.27535585740007, 21.45622134491296], [79.27825002274722, 21.456251160085564], [79.27828184291086, 21.453541841393722], [79.27538773098705, 21.453512030349454], [79.27249362407589, 21.45348216929098], [79.27246169706599, 21.45619147971923]]], [[[79.31382050933564, 21.38345179011023], [79.31378945764189, 21.38616118168718], [79.3166823009761, 21.386190241603373], [79.31957514919519, 21.38621925167343], [79.31960609446742, 21.383509852034276], [79.31963703486353, 21.38080045147804], [79.31674429305798, 21.380771449463133], [79.3138515561365, 21.38074239761592], [79.31382050933564, 21.38345179011023]]], [[[79.31058530050385, 21.413225896795886], [79.30769193440607, 21.413196696696527], [79.3047985732224, 21.413167446682888], [79.30476730777434, 21.415876816012535], [79.30766072225957, 21.415906070083086], [79.30762950519856, 21.418615442550838], [79.31052297790869, 21.418644650750316], [79.31055414165934, 21.41593527423243], [79.31058530050385, 21.413225896795886]]], [[[79.30467348189102, 21.42400491848737], [79.30470476210905, 21.421295551914866], [79.30181124591925, 21.421266239795365], [79.30177991237488, 21.4239756023036], [79.30467348189102, 21.42400491848737]]], [[[79.32782221458451, 21.42423765002967], [79.32492860591017, 21.424208733388706], [79.32203500210122, 21.42417976680366], [79.31914140316607, 21.424150750274883], [79.31624780911311, 21.42412168380273], [79.31621673731388, 21.426831065644418], [79.31332309481516, 21.426801945192516], [79.31329196478019, 21.429511322078564], [79.31039827383651, 21.429482147633273], [79.31036708554903, 21.432191519556394], [79.3074733461612, 21.43216229110408], [79.30744209960442, 21.43487165805696], [79.31033589235297, 21.434900890560268], [79.3132296900105, 21.43493007309357], [79.31326082984545, 21.43222069804561], [79.31615457904206, 21.432249826571393], [79.31618566062369, 21.42954044656733], [79.31907936135855, 21.42956952109922], [79.3191103847036, 21.426860136146363], [79.32200403697593, 21.426889156698017], [79.32489769412246, 21.426918127299018], [79.32779135613478, 21.42694704794902], [79.32782221458451, 21.42423765002967]]], [[[79.31609240120302, 21.43766858382256], [79.31612349256865, 21.434959205656504], [79.3132296900105, 21.43493007309357], [79.31319854527496, 21.437639447222324], [79.31609240120302, 21.43766858382256]]], [[[79.3044856971613, 21.440261098614897], [79.3045170069304, 21.4375517375593], [79.30162317065674, 21.437522401052018], [79.30159180751097, 21.44023175804248], [79.3044856971613, 21.440261098614897]]], [[[79.31030469424789, 21.4376102606448], [79.30741084813025, 21.437581024090342], [79.30737959173825, 21.440290389204154], [79.31027349123342, 21.440319629809913], [79.31030469424789, 21.4376102606448]]], [[[79.32447474518955, 21.46394641866211], [79.32158035825476, 21.463917393162017], [79.32154932160041, 21.466626769575786], [79.32444376199592, 21.46665579909393], [79.32447474518955, 21.46394641866211]]]]}, "properties": {"confidence_band": "Very High", "site_id": "nagpur", "cell_count": 79}}, {"type": "Feature", "geometry": {"type": "MultiPolygon", "coordinates": [[[[79.24394196902911, 21.420669511668134], [79.24683538498223, 21.420699822406498], [79.2468677265565, 21.417990537512363], [79.24397436391297, 21.417960230976547], [79.24394196902911, 21.420669511668134]]], [[[79.32194209210232, 21.432307933731217], [79.32197306697643, 21.429598545673898], [79.31907936135855, 21.42956952109922], [79.31904833313048, 21.432278905133373], [79.32194209210232, 21.432307933731217]]], [[[79.22313583066162, 21.46606152641133], [79.22316868559514, 21.463352290886533], [79.22027446554343, 21.463321513304134], [79.22024155716244, 21.46603074456846], [79.22313583066162, 21.46606152641133]]]]}, "properties": {"confidence_band": "High", "site_id": "nagpur", "cell_count": 3}}]}