{
  "type": "FeatureCollection",
  "features": [
    {
      "type": "Feature",
      "properties": {
        "line_id": "ln_001",
        "site_id": "balaghat",
        "structure_type": "fold_axis"
      },
      "geometry": {
        "type": "LineString",
        "coordinates": [
          [
            80.224817,
            22.000498
          ],
          [
            80.240828,
            21.988156
          ]
        ]
      }
    },
    {
      "type": "Feature",
      "properties": {
        "line_id": "ln_002",
        "site_id": "balaghat",
        "structure_type": "shear_zone"
      },
      "geometry": {
        "type": "LineString",
        "coordinates": [
          [
            80.380008,
            21.963183
          ],
          [
            80.389624,
            21.974177
          ]
        ]
      }
    },
    {
      "type": "Feature",
      "properties": {
        "line_id": "ln_003",
        "site_id": "balaghat",
        "structure_type": "fold_axis"
      },
      "geometry": {
        "type": "LineString",
        "coordinates": [
          [
            80.188002,
            21.85867
          ],
          [
            80.199505,
            21.846347
          ]
        ]
      }
    },
    {
      "type": "Feature",
      "properties": {
        "line_id": "ln_004",
        "site_id": "balaghat",
        "structure_type": "fold_axis"
      },
      "geometry": {
        "type": "LineString",
        "coordinates": [
          [
            80.1844,
            21.857884
          ],
          [
            80.197556,
            21.878771
          ]
        ]
      }
    },
    {
      "type": "Feature",
      "properties": {
        "line_id": "ln_005",
        "site_id": "balaghat",
        "structure_type": "fault"
      },
      "geometry": {
        "type": "LineString",
        "coordinates": [
          [
            80.347136,
            21.993477
          ],
          [
            80.35687,
            21.985191
          ]
        ]
      }
    },
    {
      "type": "Feature",
      "properties": {
        "line_id": "ln_006",
        "site_id": "balaghat",
        "structure_type": "fault"
      },
      "geometry": {
        "type": "LineString",
        "coordinates": [
          [
            80.329201,
            21.799502
          ],
          [
            80.342089,
            21.812683
          ]
        ]
      }
    },
    {
      "type": "Feature",
      "properties": {
        "line_id": "ln_007",
        "site_id": "balaghat",
        "structure_type": "fault"
      },
      "geometry": {
        "type": "LineString",
        "coordinates": [
          [
            80.478351,
            21.972652
          ],
          [
            80.496006,
            21.98393
          ]
        ]
      }
    },
    {
      "type": "Feature",
      "properties": {
        "line_id": "ln_008",
        "site_id": "balaghat",
        "structure_type": "fault"
      },
      "geometry": {
        "type": "LineString",
        "coordinates": [
          [
            80.384689,
            21.969917
          ],
          [
            80.396158,
            21.976469
          ]
        ]
      }
    },
    {
      "type": "Feature",
      "properties": {
        "line_id": "ln_009",
        "site_id": "balaghat",
        "structure_type": "fault"
      },
      "geometry": {
        "type": "LineString",
        "coordinates": [
          [
            80.34723,
            21.910675
          ],
          [
            80.356258,
            21.89679
          ]
        ]
      }
    },
    {
      "type": "Feature",
      "properties": {
        "line_id": "ln_010",
        "site_id": "balaghat",
        "structure_type": "shear_zone"
      },
      "geometry": {
        "type": "LineString",
        "coordinates": [
          [
            80.339215,
            21.860027
          ],
          [
            80.352685,
            21.877837
          ]
        ]
      }
    },
    {
      "type": "Feature",
      "properties": {
        "line_id": "ln_011",
        "site_id": "balaghat",
        "structure_type": "fold_axis"
      },
      "geometry": {
        "type": "LineString",
        "coordinates": [
          [
            80.251516,
            21.856112
          ],
          [
            80.272803,
            21.871366
          ]
        ]
      }
    },
    {
      "type": "Feature",
      "properties": {
        "line_id": "ln_012",
        "site_id": "balaghat",
        "structure_type": "fault"
      },
      "geometry": {
        "type": "LineString",
        "coordinates": [
          [
            80.181444,
            21.855062
          ],
          [
            80.184458,
            21.862474
          ]
        ]
      }
    },
    {
      "type": "Feature",
      "properties": {
        "line_id": "ln_013",
        "site_id": "balaghat",
        "structure_type": "fault"
      },
      "geometry": {
        "type": "LineString",
        "coordinates": [
          [
            80.23498,
            21.888985
          ],
          [
            80.252301,
            21.908833
          ]
        ]
      }
    },
    {
      "type": "Feature",
      "properties": {
        "line_id": "ln_014",
        "site_id": "balaghat",
        "structure_type": "shear_zone"
      },
      "geometry": {
        "type": "LineString",
        "coordinates": [
          [
            80.409815,
            21.909782
          ],
          [
            80.41324,
            21.913137
          ]
        ]
      }
    },
    {
      "type": "Feature",
      "properties": {
        "line_id": "ln_015",
        "site_id": "balaghat",
        "structure_type": "fold_axis"
      },
      "geometry": {
        "type": "LineString",
        "coordinates": [
          [
            80.236429,
            21.916377
          ],
          [
            80.256365,
            21.927202
          ]
        ]
      }
    },
    {
      "type": "Feature",
      "properties": {
        "line_id": "ln_016",
        "site_id": "balaghat",
        "structure_type": "shear_zone"
      },
      "geometry": {
        "type": "LineString",
        "coordinates": [
          [
            80.295582,
            22.024029
          ],
          [
            80.310739,
            22.006109
          ]
        ]
      }
    },
    {
      "type": "Feature",
      "properties": {
        "line_id": "ln_017",
        "site_id": "balaghat",
        "structure_type": "fold_axis"
      },
      "geometry": {
        "type": "LineString",
        "coordinates": [
          [
            80.177581,
            21.969383
          ],
          [
            80.182905,
            21.975143
          ]
        ]
      }
    },
    {
      "type": "Feature",
      "properties": {
        "line_id": "ln_018",
        "site_id": "balaghat",
        "structure_type": "fold_axis"
      },
      "geometry": {
        "type": "LineString",
        "coordinates": [
          [
            80.452985,
            21.941556
          ],
          [
            80.462823,
            21.931013
          ]
        ]
      }
    },
    {
      "type": "Feature",
      "properties": {
        "line_id": "ln_019",
        "site_id": "balaghat",
        "structure_type": "shear_zone"
      },
      "geometry": {
        "type": "LineString",
        "coordinates": [
          [
            80.222711,
            22.00513
          ],
          [
            80.239072,
            22.022248
          ]
        ]
      }
    },
    {
      "type": "Feature",
      "properties": {
        "line_id": "ln_020",
        "site_id": "balaghat",
        "structure_type": "fold_axis"
      },
      "geometry": {
        "type": "LineString",
        "coordinates": [
          [
            80.266598,
            21.849321
          ],
          [
            80.271217,
            21.851517
          ]
        ]
      }
    },
    {
      "type": "Feature",
      "properties": {
        "line_id": "ln_021",
        "site_id": "nagpur",
        "structure_type": "fault"
      },
      "geometry": {
        "type": "LineString",
        "coordinates": [
          [
            79.213783,
            21.413071
          ],
          [
            79.232881,
            21.42373
          ]
        ]
      }
    },
    {
      "type": "Feature",
      "properties": {
        "line_id": "ln_022",
        "site_id": "nagpur",
        "structure_type": "fault"
      },
      "geometry": {
        "type": "LineString",
        "coordinates": [
          [
            79.234292,
            21.411204
          ],
          [
            79.248053,
            21.390842
          ]
        ]
      }
    },
    {
      "type": "Feature",
      "properties": {
        "line_id": "ln_023",
        "site_id": "nagpur",
        "structure_type": "fold_axis"
      },
      "geometry": {
        "type": "LineString",
        "coordinates": [
          [
            79.313062,
            21.463236
          ],
          [
            79.323831,
            21.440711
          ]
        ]
      }
    },
    {
      "type": "Feature",
      "properties": {
        "line_id": "ln_024",
        "site_id": "nagpur",
        "structure_type": "fault"
      },
      "geometry": {
        "type": "LineString",
        "coordinates": [
          [
            79.307724,
            21.395949
          ],
          [
            79.312606,
            21.402711
          ]
        ]
      }
    },
    {
      "type": "Feature",
      "properties": {
        "line_id": "ln_025",
        "site_id": "nagpur",
        "structure_type": "fault"
      },
      "geometry": {
        "type": "LineString",
        "coordinates": [
          [
            79.227694,
            21.45582
          ],
          [
            79.232543,
            21.458187
          ]
        ]
      }
    },
    {
      "type": "Feature",
      "properties": {
        "line_id": "ln_026",
        "site_id": "nagpur",
        "structure_type": "fault"
      },
      "geometry": {
        "type": "LineString",
        "coordinates": [
          [
            79.275293,
            21.355818
          ],
          [
            79.293037,
            21.365451
          ]
        ]
      }
    },
    {
      "type": "Feature",
      "properties": {
        "line_id": "ln_027",
        "site_id": "nagpur",
        "structure_type": "fold_axis"
      },
      "geometry": {
        "type": "LineString",
        "coordinates": [
          [
            79.267516,
            21.405184
          ],
          [
            79.273407,
            21.397618
          ]
        ]
      }
    },
    {
      "type": "Feature",
      "properties": {
        "line_id": "ln_028",
        "site_id": "nagpur",
        "structure_type": "fault"
      },
      "geometry": {
        "type": "LineString",
        "coordinates": [
          [
            79.275204,
            21.407169
          ],
          [
            79.291125,
            21.415834
          ]
        ]
      }
    },
    {
      "type": "Feature",
      "properties": {
        "line_id": "ln_029",
        "site_id": "nagpur",
        "structure_type": "shear_zone"
      },
      "geometry": {
        "type": "LineString",
        "coordinates": [
          [
            79.280406,
            21.469228
          ],
          [
            79.30013,
            21.451137
          ]
        ]
      }
    },
    {
      "type": "Feature",
      "properties": {
        "line_id": "ln_030",
        "site_id": "nagpur",
        "structure_type": "fold_axis"
      },
      "geometry": {
        "type": "LineString",
        "coordinates": [
          [
            79.249062,
            21.387337
          ],
          [
            79.253907,
            21.375069
          ]
        ]
      }
    },
    {
      "type": "Feature",
      "properties": {
        "line_id": "ln_031",
        "site_id": "nagpur",
        "structure_type": "fault"
      },
      "geometry": {
        "type": "LineString",
        "coordinates": [
          [
            79.321214,
            21.448477
          ],
          [
            79.325774,
            21.439188
          ]
        ]
      }
    },
    {
      "type": "Feature",
      "properties": {
        "line_id": "ln_032",
        "site_id": "nagpur",
        "structure_type": "fault"
      },
      "geometry": {
        "type": "LineString",
        "coordinates": [
          [
            79.266266,
            21.436171
          ],
          [
            79.271719,
            21.422255
          ]
        ]
      }
    },
    {
      "type": "Feature",
      "properties": {
        "line_id": "ln_033",
        "site_id": "nagpur",
        "structure_type": "shear_zone"
      },
      "geometry": {
        "type": "LineString",
        "coordinates": [
          [
            79.285387,
            21.443377
          ],
          [
            79.288292,
            21.424214
          ]
        ]
      }
    },
    {
      "type": "Feature",
      "properties": {
        "line_id": "ln_034",
        "site_id": "nagpur",
        "structure_type": "fault"
      },
      "geometry": {
        "type": "LineString",
        "coordinates": [
          [
            79.286818,
            21.427241
          ],
          [
            79.288429,
            21.420612
          ]
        ]
      }
    },
    {
      "type": "Feature",
      "properties": {
        "line_id": "ln_035",
        "site_id": "nagpur",
        "structure_type": "fault"
      },
      "geometry": {
        "type": "LineString",
        "coordinates": [
          [
            79.233083,
            21.467194
          ],
          [
            79.242879,
            21.457826
          ]
        ]
      }
    },
    {
      "type": "Feature",
      "properties": {
        "line_id": "ln_036",
        "site_id": "nagpur",
        "structure_type": "fault"
      },
      "geometry": {
        "type": "LineString",
        "coordinates": [
          [
            79.221437,
            21.392796
          ],
          [
            79.227682,
            21.388045
          ]
        ]
      }
    },
    {
      "type": "Feature",
      "properties": {
        "line_id": "ln_037",
        "site_id": "nagpur",
        "structure_type": "fault"
      },
      "geometry": {
        "type": "LineString",
        "coordinates": [
          [
            79.25932,
            21.406922
          ],
          [
            79.266715,
            21.388721
          ]
        ]
      }
    },
    {
      "type": "Feature",
      "properties": {
        "line_id": "ln_038",
        "site_id": "nagpur",
        "structure_type": "shear_zone"
      },
      "geometry": {
        "type": "LineString",
        "coordinates": [
          [
            79.293351,
            21.384314
          ],
          [
            79.31023,
            21.36724
          ]
        ]
      }
    },
    {
      "type": "Feature",
      "properties": {
        "line_id": "ln_039",
        "site_id": "bhandara",
        "structure_type": "fold_axis"
      },
      "geometry": {
        "type": "LineString",
        "coordinates": [
          [
            79.725542,
            21.51384
          ],
          [
            79.731946,
            21.525882
          ]
        ]
      }
    },
    {
      "type": "Feature",
      "properties": {
        "line_id": "ln_040",
        "site_id": "bhandara",
        "structure_type": "shear_zone"
      },
      "geometry": {
        "type": "LineString",
        "coordinates": [
          [
            79.754274,
            21.568368
          ],
          [
            79.768948,
            21.586039
          ]
        ]
      }
    },
    {
      "type": "Feature",
      "properties": {
        "line_id": "ln_041",
        "site_id": "bhandara",
        "structure_type": "shear_zone"
      },
      "geometry": {
        "type": "LineString",
        "coordinates": [
          [
            79.781046,
            21.542351
          ],
          [
            79.788098,
            21.565678
          ]
        ]
      }
    },
    {
      "type": "Feature",
      "properties": {
        "line_id": "ln_042",
        "site_id": "bhandara",
        "structure_type": "shear_zone"
      },
      "geometry": {
        "type": "LineString",
        "coordinates": [
          [
            79.660644,
            21.507401
          ],
          [
            79.669728,
            21.506335
          ]
        ]
      }
    },
    {
      "type": "Feature",
      "properties": {
        "line_id": "ln_043",
        "site_id": "bhandara",
        "structure_type": "shear_zone"
      },
      "geometry": {
        "type": "LineString",
        "coordinates": [
          [
            79.672743,
            21.530323
          ],
          [
            79.675759,
            21.537374
          ]
        ]
      }
    },
    {
      "type": "Feature",
      "properties": {
        "line_id": "ln_044",
        "site_id": "bhandara",
        "structure_type": "fold_axis"
      },
      "geometry": {
        "type": "LineString",
        "coordinates": [
          [
            79.768278,
            21.579441
          ],
          [
            79.770805,
            21.586107
          ]
        ]
      }
    },
    {
      "type": "Feature",
      "properties": {
        "line_id": "ln_045",
        "site_id": "bhandara",
        "structure_type": "shear_zone"
      },
      "geometry": {
        "type": "LineString",
        "coordinates": [
          [
            79.743646,
            21.514172
          ],
          [
            79.74742,
            21.540575
          ]
        ]
      }
    },
    {
      "type": "Feature",
      "properties": {
        "line_id": "ln_046",
        "site_id": "bhandara",
        "structure_type": "fold_axis"
      },
      "geometry": {
        "type": "LineString",
        "coordinates": [
          [
            79.745127,
            21.569833
          ],
          [
            79.769619,
            21.558012
          ]
        ]
      }
    },
    {
      "type": "Feature",
      "properties": {
        "line_id": "ln_047",
        "site_id": "bhandara",
        "structure_type": "fold_axis"
      },
      "geometry": {
        "type": "LineString",
        "coordinates": [
          [
            79.796495,
            21.493514
          ],
          [
            79.803681,
            21.50054
          ]
        ]
      }
    },
    {
      "type": "Feature",
      "properties": {
        "line_id": "ln_048",
        "site_id": "bhandara",
        "structure_type": "fault"
      },
      "geometry": {
        "type": "LineString",
        "coordinates": [
          [
            79.777053,
            21.56531
          ],
          [
            79.805284,
            21.566117
          ]
        ]
      }
    },
    {
      "type": "Feature",
      "properties": {
        "line_id": "ln_049",
        "site_id": "bhandara",
        "structure_type": "fault"
      },
      "geometry": {
        "type": "LineString",
        "coordinates": [
          [
            79.771354,
            21.571011
          ],
          [
            79.781199,
            21.571126
          ]
        ]
      }
    },
    {
      "type": "Feature",
      "properties": {
        "line_id": "ln_050",
        "site_id": "bhandara",
        "structure_type": "shear_zone"
      },
      "geometry": {
        "type": "LineString",
        "coordinates": [
          [
            79.765028,
            21.568521
          ],
          [
            79.767109,
            21.584356
          ]
        ]
      }
    },
    {
      "type": "Feature",
      "properties": {
        "line_id": "ln_051",
        "site_id": "bhandara",
        "structure_type": "fault"
      },
      "geometry": {
        "type": "LineString",
        "coordinates": [
          [
            79.703554,
            21.552698
          ],
          [
            79.710228,
            21.567156
          ]
        ]
      }
    },
    {
      "type": "Feature",
      "properties": {
        "line_id": "ln_052",
        "site_id": "bhandara",
        "structure_type": "shear_zone"
      },
      "geometry": {
        "type": "LineString",
        "coordinates": [
          [
            79.73167,
            21.528418
          ],
          [
            79.758375,
            21.525317
          ]
        ]
      }
    },
    {
      "type": "Feature",
      "properties": {
        "line_id": "ln_053",
        "site_id": "bhandara",
        "structure_type": "fold_axis"
      },
      "geometry": {
        "type": "LineString",
        "coordinates": [
          [
            79.671441,
            21.494045
          ],
          [
            79.677116,
            21.492907
          ]
        ]
      }
    },
    {
      "type": "Feature",
      "properties": {
        "line_id": "ln_054",
        "site_id": "bhandara",
        "structure_type": "fault"
      },
      "geometry": {
        "type": "LineString",
        "coordinates": [
          [
            79.759781,
            21.538223
          ],
          [
            79.766898,
            21.547768
          ]
        ]
      }
    },
    {
      "type": "Feature",
      "properties": {
        "line_id": "ln_055",
        "site_id": "bhandara",
        "structure_type": "shear_zone"
      },
      "geometry": {
        "type": "LineString",
        "coordinates": [
          [
            79.753455,
            21.569935
          ],
          [
            79.772665,
            21.568059
          ]
        ]
      }
    },
    {
      "type": "Feature",
      "properties": {
        "line_id": "ln_056",
        "site_id": "bhandara",
        "structure_type": "fault"
      },
      "geometry": {
        "type": "LineString",
        "coordinates": [
          [
            79.754249,
            21.507744
          ],
          [
            79.760598,
            21.506797
          ]
        ]
      }
    },
    {
      "type": "Feature",
      "properties": {
        "line_id": "ln_057",
        "site_id": "bhandara",
        "structure_type": "fold_axis"
      },
      "geometry": {
        "type": "LineString",
        "coordinates": [
          [
            79.709448,
            21.51651
          ],
          [
            79.719753,
            21.514459
          ]
        ]
      }
    }
  ]
}
